,uy_id,result_placename,searched_placename,admin1,country_name,lat,lng,src_id,country_code,url,src,namiest,uezd,partof_id
0,156,not_found,иолтавск,not_found,not_found,not_found,not_found,not_found,not_found,http://api.geonames.org/search?type=json&south=46.07&username=jaguillette&featureClass=P&east=39.14&name=%D0%B8%D0%BE%D0%BB%D1%82%D0%B0%D0%B2%D1%81%D0%BA&north=49.99&west=29.6,geonames,екатеринославск,иолтавск,8
1,156,not_found,иолтав,not_found,not_found,not_found,not_found,not_found,not_found,http://api.geonames.org/search?type=json&south=46.07&username=jaguillette&featureClass=P&east=39.14&name=%D0%B8%D0%BE%D0%BB%D1%82%D0%B0%D0%B2&north=49.99&west=29.6,geonames,екатеринославск,иолтавск,8
2,157,not_found,вытегр,not_found,not_found,not_found,not_found,not_found,not_found,http://api.geonames.org/search?type=json&south=57.783333&username=jaguillette&featureClass=P&east=38.35&name=%D0%B2%D1%8B%D1%82%D0%B5%D0%B3%D1%80&north=65.783333&west=30.35,geonames,олонецк,вытегр,20
3,158,Lebedin,лебедин,Kursk,Russia,51.54083,35.96667,536544,RU,http://api.geonames.org/search?type=json&south=48.4869&username=jaguillette&featureClass=P&east=38.2875&name=%D0%BB%D0%B5%D0%B1%D0%B5%D0%B4%D0%B8%D0%BD&north=51.5689&west=33.5563,geonames,харьковск,лебедин,37
4,158,Lebedyn,лебедин,Sumy,Ukraine,50.58518,34.4849,613273,UA,http://api.geonames.org/search?type=json&south=48.4869&username=jaguillette&featureClass=P&east=38.2875&name=%D0%BB%D0%B5%D0%B1%D0%B5%D0%B4%D0%B8%D0%BD&north=51.5689&west=33.5563,geonames,харьковск,лебедин,37
5,159,not_found,зеликолуцк,not_found,not_found,not_found,not_found,not_found,not_found,http://api.geonames.org/search?type=json&south=55.1937102573&username=jaguillette&featureClass=P&east=32.1900482178&name=%D0%B7%D0%B5%D0%BB%D0%B8%D0%BA%D0%BE%D0%BB%D1%83%D1%86%D0%BA&north=59.0651312501&west=24.1218047142,geonames,псковск,зеликолуцк,25
6,160,not_found,екатеринбургск,not_found,not_found,not_found,not_found,not_found,not_found,http://api.geonames.org/search?type=json&south=54.013889&username=jaguillette&featureClass=P&east=60.248889&name=%D0%B5%D0%BA%D0%B0%D1%82%D0%B5%D1%80%D0%B8%D0%BD%D0%B1%D1%83%D1%80%D0%B3%D1%81%D0%BA&north=62.013889&west=52.248889,geonames,пермск,екатеринбургск,23
7,160,not_found,екатеринбург,not_found,not_found,not_found,not_found,not_found,not_found,http://api.geonames.org/search?type=json&south=54.013889&username=jaguillette&featureClass=P&east=60.248889&name=%D0%B5%D0%BA%D0%B0%D1%82%D0%B5%D1%80%D0%B8%D0%BD%D0%B1%D1%83%D1%80%D0%B3&north=62.013889&west=52.248889,geonames,пермск,екатеринбургск,23
8,161,not_found,белаозерск,not_found,not_found,not_found,not_found,not_found,not_found,http://api.geonames.org/search?type=json&south=57.1&username=jaguillette&featureClass=P&east=39.89&name=%D0%B1%D0%B5%D0%BB%D0%B0%D0%BE%D0%B7%D0%B5%D1%80%D1%81%D0%BA&north=61.31&west=28.65,geonames,новогородск,белаозерск,18
9,161,not_found,белаозер,not_found,not_found,not_found,not_found,not_found,not_found,http://api.geonames.org/search?type=json&south=57.1&username=jaguillette&featureClass=P&east=39.89&name=%D0%B1%D0%B5%D0%BB%D0%B0%D0%BE%D0%B7%D0%B5%D1%80&north=61.31&west=28.65,geonames,новогородск,белаозерск,18
10,162,not_found,нежим,not_found,not_found,not_found,not_found,not_found,not_found,http://api.geonames.org/search?type=json&south=47.5&username=jaguillette&featureClass=P&east=35.3&name=%D0%BD%D0%B5%D0%B6%D0%B8%D0%BC&north=55.5&west=27.3,geonames,черниговск,нежим,38
11,163,not_found,сапожк,not_found,not_found,not_found,not_found,not_found,not_found,http://api.geonames.org/search?type=json&south=53.0517&username=jaguillette&featureClass=P&east=41.6952&name=%D1%81%D0%B0%D0%BF%D0%BE%D0%B6%D0%BA&north=55.9254&west=38.154,geonames,рязанск,сапожк,28
12,164,not_found,дерптск,not_found,not_found,not_found,not_found,not_found,not_found,http://api.geonames.org/search?type=json&south=52.9475&username=jaguillette&featureClass=P&east=28.106944&name=%D0%B4%D0%B5%D1%80%D0%BF%D1%82%D1%81%D0%BA&north=60.9475&west=20.106944,geonames,рижск,дерптск,27
13,164,Tartu,дерпт,Tartu,Estonia,58.38062,26.72509,588335,EE,http://api.geonames.org/search?type=json&south=52.9475&username=jaguillette&featureClass=P&east=28.106944&name=%D0%B4%D0%B5%D1%80%D0%BF%D1%82&north=60.9475&west=20.106944,geonames,рижск,дерптск,27
14,165,Karachev,карачев,Brjansk,Russia,53.12292,34.98517,552920,RU,http://api.geonames.org/search?type=json&south=51.8511&username=jaguillette&featureClass=P&east=39.224&name=%D0%BA%D0%B0%D1%80%D0%B0%D1%87%D0%B5%D0%B2&north=54.0138&west=32.7557,geonames,орловск,карачев,21
15,168,not_found,якск,not_found,not_found,not_found,not_found,not_found,not_found,http://api.geonames.org/search?type=json&south=48.1597&username=jaguillette&featureClass=P&east=43.0242&name=%D1%8F%D0%BA%D1%81%D0%BA&north=52.7866&west=37.234,geonames,воронежск,якск,5
16,168,not_found,як,not_found,not_found,not_found,not_found,not_found,not_found,http://api.geonames.org/search?type=json&south=48.1597&username=jaguillette&featureClass=P&east=43.0242&name=%D1%8F%D0%BA&north=52.7866&west=37.234,geonames,воронежск,якск,5
17,169,Sen’kivka,сен,Chernihiv,Ukraine,52.08901,31.78039,694537,UA,http://api.geonames.org/search?type=json&south=51.9042&username=jaguillette&featureClass=P&east=32.863&name=%D1%81%D0%B5%D0%BD&north=55.194&west=29.5408,geonames,могилевск,сен,16
18,169,Sen’kovo,сен,Mogilev,Belarus,54.3266,30.8814,622270,BY,http://api.geonames.org/search?type=json&south=51.9042&username=jaguillette&featureClass=P&east=32.863&name=%D1%81%D0%B5%D0%BD&north=55.194&west=29.5408,geonames,могилевск,сен,16
19,169,Sen’kovo,сен,Smolensk,Russia,54.83761,32.19789,492771,RU,http://api.geonames.org/search?type=json&south=51.9042&username=jaguillette&featureClass=P&east=32.863&name=%D1%81%D0%B5%D0%BD&north=55.194&west=29.5408,geonames,могилевск,сен,16
20,169,Sen’kov,сен,Mogilev,Belarus,53.7598,29.5789,621935,BY,http://api.geonames.org/search?type=json&south=51.9042&username=jaguillette&featureClass=P&east=32.863&name=%D1%81%D0%B5%D0%BD&north=55.194&west=29.5408,geonames,могилевск,сен,16
21,169,Sen’kovo,сен,Mogilev,Belarus,53.9375,30.1693,622268,BY,http://api.geonames.org/search?type=json&south=51.9042&username=jaguillette&featureClass=P&east=32.863&name=%D1%81%D0%B5%D0%BD&north=55.194&west=29.5408,geonames,могилевск,сен,16
22,169,Sen’kovo,сен,Mogilev,Belarus,53.9117,30.3977,8331388,BY,http://api.geonames.org/search?type=json&south=51.9042&username=jaguillette&featureClass=P&east=32.863&name=%D1%81%D0%B5%D0%BD&north=55.194&west=29.5408,geonames,могилевск,сен,16
23,169,Sen’kin Rov,сен,Brjansk,Russia,53.05306,32.65129,863792,RU,http://api.geonames.org/search?type=json&south=51.9042&username=jaguillette&featureClass=P&east=32.863&name=%D1%81%D0%B5%D0%BD&north=55.194&west=29.5408,geonames,могилевск,сен,16
24,170,Bogorodsk,богородск,Moskovskaya,Russia,55.85,38.45,575561,RU,http://api.geonames.org/search?type=json&south=54.2132&username=jaguillette&featureClass=P&east=40.3419&name=%D0%B1%D0%BE%D0%B3%D0%BE%D1%80%D0%BE%D0%B4%D1%81%D0%BA&north=56.981&west=34.3446,geonames,московск,богородск,1
25,173,Koz'modem'yansk,козьмодемьянск,Mariy-El,Russia,56.3419,46.56353,543018,RU,http://api.geonames.org/search?type=json&south=51.790833&username=jaguillette&featureClass=P&east=53.114444&name=%D0%BA%D0%BE%D0%B7%D1%8C%D0%BC%D0%BE%D0%B4%D0%B5%D0%BC%D1%8C%D1%8F%D0%BD%D1%81%D0%BA&north=59.790833&west=45.114444,geonames,казанск,козьмодемьянск,11
26,174,Ruza,руз,Moskovskaya,Russia,55.69898,36.19522,500303,RU,http://api.geonames.org/search?type=json&south=54.2132&username=jaguillette&featureClass=P&east=40.3419&name=%D1%80%D1%83%D0%B7&north=56.981&west=34.3446,geonames,московск,руз,1
27,178,Voskresensk,воскресенск,Moskovskaya,Russia,55.31733,38.65264,471656,RU,http://api.geonames.org/search?type=json&south=54.2132&username=jaguillette&featureClass=P&east=40.3419&name=%D0%B2%D0%BE%D1%81%D0%BA%D1%80%D0%B5%D1%81%D0%B5%D0%BD%D1%81%D0%BA&north=56.981&west=34.3446,geonames,московск,воскресенск,1
28,178,Voskresensk,воскресенск,Smolensk,Russia,55.64583,34.93861,471655,RU,http://api.geonames.org/search?type=json&south=54.2132&username=jaguillette&featureClass=P&east=40.3419&name=%D0%B2%D0%BE%D1%81%D0%BA%D1%80%D0%B5%D1%81%D0%B5%D0%BD%D1%81%D0%BA&north=56.981&west=34.3446,geonames,московск,воскресенск,1
29,178,Voskresensk,воскресенск,Smolensk,Russia,54.98333,35.11667,471657,RU,http://api.geonames.org/search?type=json&south=54.2132&username=jaguillette&featureClass=P&east=40.3419&name=%D0%B2%D0%BE%D1%81%D0%BA%D1%80%D0%B5%D1%81%D0%B5%D0%BD%D1%81%D0%BA&north=56.981&west=34.3446,geonames,московск,воскресенск,1
30,178,Voskresenki,воскресенск,Moskovskaya,Russia,55.84154,36.63196,471668,RU,http://api.geonames.org/search?type=json&south=54.2132&username=jaguillette&featureClass=P&east=40.3419&name=%D0%B2%D0%BE%D1%81%D0%BA%D1%80%D0%B5%D1%81%D0%B5%D0%BD%D1%81%D0%BA&north=56.981&west=34.3446,geonames,московск,воскресенск,1
31,178,Istra,воскресенск,Moskovskaya,Russia,55.91997,36.86867,555746,RU,http://api.geonames.org/search?type=json&south=54.2132&username=jaguillette&featureClass=P&east=40.3419&name=%D0%B2%D0%BE%D1%81%D0%BA%D1%80%D0%B5%D1%81%D0%B5%D0%BD%D1%81%D0%BA&north=56.981&west=34.3446,geonames,московск,воскресенск,1
32,179,not_found,дяцк,not_found,not_found,not_found,not_found,not_found,not_found,http://api.geonames.org/search?type=json&south=49.08008&username=jaguillette&featureClass=P&east=34.35625&name=%D0%B4%D1%8F%D1%86%D0%BA&north=51.49413&west=29.72503,geonames,киевск,дяцк,13
33,180,not_found,любенск,not_found,not_found,not_found,not_found,not_found,not_found,http://api.geonames.org/search?type=json&south=49.08008&username=jaguillette&featureClass=P&east=34.35625&name=%D0%BB%D1%8E%D0%B1%D0%B5%D0%BD%D1%81%D0%BA&north=51.49413&west=29.72503,geonames,киевск,любенск,13
34,180,not_found,любен,not_found,not_found,not_found,not_found,not_found,not_found,http://api.geonames.org/search?type=json&south=49.08008&username=jaguillette&featureClass=P&east=34.35625&name=%D0%BB%D1%8E%D0%B1%D0%B5%D0%BD&north=51.49413&west=29.72503,geonames,киевск,любенск,13
35,182,Yefremov,ефремов,Tula,Russia,53.14806,38.09924,468390,RU,http://api.geonames.org/search?type=json&south=52.8329&username=jaguillette&featureClass=P&east=39.6827&name=%D0%B5%D1%84%D1%80%D0%B5%D0%BC%D0%BE%D0%B2&north=55.0867&west=35.5421,geonames,тульск,ефремов,35
36,183,Borovsk,боровск,Kaluga,Russia,55.20639,36.48611,572070,RU,http://api.geonames.org/search?type=json&south=53.2604&username=jaguillette&featureClass=P&east=37.3796&name=%D0%B1%D0%BE%D1%80%D0%BE%D0%B2%D1%81%D0%BA&north=55.374&west=33.3881,geonames,калужск,боровск,12
37,186,not_found,алатырск,not_found,not_found,not_found,not_found,not_found,not_found,http://api.geonames.org/search?type=json&south=50.316667&username=jaguillette&featureClass=P&east=52.366667&name=%D0%B0%D0%BB%D0%B0%D1%82%D1%8B%D1%80%D1%81%D0%BA&north=58.316667&west=44.366667,geonames,синбирск,алатырск,30
38,186,Alatyr',алатыр,Chuvashia,Russia,54.8421,46.5813,583437,RU,http://api.geonames.org/search?type=json&south=50.316667&username=jaguillette&featureClass=P&east=52.366667&name=%D0%B0%D0%BB%D0%B0%D1%82%D1%8B%D1%80&north=58.316667&west=44.366667,geonames,синбирск,алатырск,30
39,186,Alatyr’kasy,алатыр,Chuvashia,Russia,56.0395,47.54381,6198182,RU,http://api.geonames.org/search?type=json&south=50.316667&username=jaguillette&featureClass=P&east=52.366667&name=%D0%B0%D0%BB%D0%B0%D1%82%D1%8B%D1%80&north=58.316667&west=44.366667,geonames,синбирск,алатырск,30
40,188,not_found,опочек,not_found,not_found,not_found,not_found,not_found,not_found,http://api.geonames.org/search?type=json&south=55.1937102573&username=jaguillette&featureClass=P&east=32.1900482178&name=%D0%BE%D0%BF%D0%BE%D1%87%D0%B5%D0%BA&north=59.0651312501&west=24.1218047142,geonames,псковск,опочек,25
41,189,not_found,царевококшайск,not_found,not_found,not_found,not_found,not_found,not_found,http://api.geonames.org/search?type=json&south=51.790833&username=jaguillette&featureClass=P&east=53.114444&name=%D1%86%D0%B0%D1%80%D0%B5%D0%B2%D0%BE%D0%BA%D0%BE%D0%BA%D1%88%D0%B0%D0%B9%D1%81%D0%BA&north=59.790833&west=45.114444,geonames,казанск,царевококшайск,11
42,189,not_found,царевококшай,not_found,not_found,not_found,not_found,not_found,not_found,http://api.geonames.org/search?type=json&south=51.790833&username=jaguillette&featureClass=P&east=53.114444&name=%D1%86%D0%B0%D1%80%D0%B5%D0%B2%D0%BE%D0%BA%D0%BE%D0%BA%D1%88%D0%B0%D0%B9&north=59.790833&west=45.114444,geonames,казанск,царевококшайск,11
43,190,Yur’yev-Pol’skiy,юрьев,Vladimir,Russia,56.50339,39.67911,466215,RU,http://api.geonames.org/search?type=json&south=52.133333&username=jaguillette&featureClass=P&east=44.416667&name=%D1%8E%D1%80%D1%8C%D0%B5%D0%B2&north=60.133333&west=36.416667,geonames,владимерск,юрьев,3
44,191,Porkhov,порхов,Pskov,Russia,57.76502,29.55612,506278,RU,http://api.geonames.org/search?type=json&south=55.1937102573&username=jaguillette&featureClass=P&east=32.1900482178&name=%D0%BF%D0%BE%D1%80%D1%85%D0%BE%D0%B2&north=59.0651312501&west=24.1218047142,geonames,псковск,порхов,25
45,192,not_found,менск,not_found,not_found,not_found,not_found,not_found,not_found,http://api.geonames.org/search?type=json&south=47.5&username=jaguillette&featureClass=P&east=35.3&name=%D0%BC%D0%B5%D0%BD%D1%81%D0%BA&north=55.5&west=27.3,geonames,черниговск,менск,38
46,192,Men’kivka,мен,Zhytomyr,Ukraine,50.64875,29.16948,701357,UA,http://api.geonames.org/search?type=json&south=47.5&username=jaguillette&featureClass=P&east=35.3&name=%D0%BC%D0%B5%D0%BD&north=55.5&west=27.3,geonames,черниговск,менск,38
47,192,Men'shikovo,мен,Kursk,Russia,51.9306,34.9014,527547,RU,http://api.geonames.org/search?type=json&south=47.5&username=jaguillette&featureClass=P&east=35.3&name=%D0%BC%D0%B5%D0%BD&north=55.5&west=27.3,geonames,черниговск,менск,38
48,193,V’yugovtsy,в,Kirov,Russia,58.27584,50.29378,470078,RU,http://api.geonames.org/search?type=json&south=57.25&username=jaguillette&featureClass=P&east=57.25&name=%D0%B2&north=64.08&west=37.83,geonames,вологодск,в,4
49,193,V’yushkovo,в,Ivanovo,Russia,57.58698,41.91335,469946,RU,http://api.geonames.org/search?type=json&south=57.25&username=jaguillette&featureClass=P&east=57.25&name=%D0%B2&north=64.08&west=37.83,geonames,вологодск,в,4
50,193,V’yugi,в,Kirov,Russia,58.04901,49.07168,469956,RU,http://api.geonames.org/search?type=json&south=57.25&username=jaguillette&featureClass=P&east=57.25&name=%D0%B2&north=64.08&west=37.83,geonames,вологодск,в,4
51,193,V’yalkovshchina,в,Kirov,Russia,58.63573,48.03712,6311788,RU,http://api.geonames.org/search?type=json&south=57.25&username=jaguillette&featureClass=P&east=57.25&name=%D0%B2&north=64.08&west=37.83,geonames,вологодск,в,4
52,193,V’yushino,в,Vologda,Russia,60.4086,38.1454,8245510,RU,http://api.geonames.org/search?type=json&south=57.25&username=jaguillette&featureClass=P&east=57.25&name=%D0%B2&north=64.08&west=37.83,geonames,вологодск,в,4
53,196,not_found,пошехонском ,not_found,not_found,not_found,not_found,not_found,not_found,http://api.geonames.org/search?type=json&south=53.616667&username=jaguillette&featureClass=P&east=43.85&name=%D0%BF%D0%BE%D1%88%D0%B5%D1%85%D0%BE%D0%BD%D1%81%D0%BA%D0%BE%D0%BC+&north=61.616667&west=35.85,geonames,ярославск,пошехонском ,39
54,197,not_found,курмышск,not_found,not_found,not_found,not_found,not_found,not_found,http://api.geonames.org/search?type=json&south=50.316667&username=jaguillette&featureClass=P&east=52.366667&name=%D0%BA%D1%83%D1%80%D0%BC%D1%8B%D1%88%D1%81%D0%BA&north=58.316667&west=44.366667,geonames,синбирск,курмышск,30
55,197,Kurmysh,курмыш,Nizjnij Novgorod,Russia,55.83336,46.07337,538665,RU,http://api.geonames.org/search?type=json&south=50.316667&username=jaguillette&featureClass=P&east=52.366667&name=%D0%BA%D1%83%D1%80%D0%BC%D1%8B%D1%88&north=58.316667&west=44.366667,geonames,синбирск,курмышск,30
56,197,Kurmysh,курмыш,Tatarstan,Russia,54.43403,50.77101,538666,RU,http://api.geonames.org/search?type=json&south=50.316667&username=jaguillette&featureClass=P&east=52.366667&name=%D0%BA%D1%83%D1%80%D0%BC%D1%8B%D1%88&north=58.316667&west=44.366667,geonames,синбирск,курмышск,30
57,197,Kurmyshi,курмыш,Chuvashia,Russia,55.98805,47.0592,538664,RU,http://api.geonames.org/search?type=json&south=50.316667&username=jaguillette&featureClass=P&east=52.366667&name=%D0%BA%D1%83%D1%80%D0%BC%D1%8B%D1%88&north=58.316667&west=44.366667,geonames,синбирск,курмышск,30
58,197,Verkhniy Kurmysh,курмыш,Saratov,Russia,51.1,48.76667,474938,RU,http://api.geonames.org/search?type=json&south=50.316667&username=jaguillette&featureClass=P&east=52.366667&name=%D0%BA%D1%83%D1%80%D0%BC%D1%8B%D1%88&north=58.316667&west=44.366667,geonames,синбирск,курмышск,30
59,199,not_found,роченск,not_found,not_found,not_found,not_found,not_found,not_found,http://api.geonames.org/search?type=json&south=48.4869&username=jaguillette&featureClass=P&east=38.2875&name=%D1%80%D0%BE%D1%87%D0%B5%D0%BD%D1%81%D0%BA&north=51.5689&west=33.5563,geonames,харьковск,роченск,37
60,199,not_found,рочен,not_found,not_found,not_found,not_found,not_found,not_found,http://api.geonames.org/search?type=json&south=48.4869&username=jaguillette&featureClass=P&east=38.2875&name=%D1%80%D0%BE%D1%87%D0%B5%D0%BD&north=51.5689&west=33.5563,geonames,харьковск,роченск,37
61,200,not_found,сумск,not_found,not_found,not_found,not_found,not_found,not_found,http://api.geonames.org/search?type=json&south=48.4869&username=jaguillette&featureClass=P&east=38.2875&name=%D1%81%D1%83%D0%BC%D1%81%D0%BA&north=51.5689&west=33.5563,geonames,харьковск,сумск,37
62,200,Sum’skoy,сум,Belgorod,Russia,50.62429,36.37693,808092,RU,http://api.geonames.org/search?type=json&south=48.4869&username=jaguillette&featureClass=P&east=38.2875&name=%D1%81%D1%83%D0%BC&north=51.5689&west=33.5563,geonames,харьковск,сумск,37
63,202,not_found,ваг,not_found,not_found,not_found,not_found,not_found,not_found,http://api.geonames.org/search?type=json&south=38.6&username=jaguillette&featureClass=P&east=180&name=%D0%B2%D0%B0%D0%B3&north=78.0&west=24.8,geonames,нот_ин_теxт,ваг,0
64,204,not_found,зубцовск,not_found,not_found,not_found,not_found,not_found,not_found,http://api.geonames.org/search?type=json&south=52.857828&username=jaguillette&featureClass=P&east=39.921928&name=%D0%B7%D1%83%D0%B1%D1%86%D0%BE%D0%B2%D1%81%D0%BA&north=60.857828&west=31.921928,geonames,тверск,зубцовск,33
65,204,Zubtsov,зубцов,Tverskaya,Russia,56.17533,34.58935,462008,RU,http://api.geonames.org/search?type=json&south=52.857828&username=jaguillette&featureClass=P&east=39.921928&name=%D0%B7%D1%83%D0%B1%D1%86%D0%BE%D0%B2&north=60.857828&west=31.921928,geonames,тверск,зубцовск,33
66,205,not_found,рачевск,not_found,not_found,not_found,not_found,not_found,not_found,http://api.geonames.org/search?type=json&south=51.8511&username=jaguillette&featureClass=P&east=39.224&name=%D1%80%D0%B0%D1%87%D0%B5%D0%B2%D1%81%D0%BA&north=54.0138&west=32.7557,geonames,орловск,рачевск,21
67,205,not_found,рачев,not_found,not_found,not_found,not_found,not_found,not_found,http://api.geonames.org/search?type=json&south=51.8511&username=jaguillette&featureClass=P&east=39.224&name=%D1%80%D0%B0%D1%87%D0%B5%D0%B2&north=54.0138&west=32.7557,geonames,орловск,рачевск,21
68,207,not_found,луховск,not_found,not_found,not_found,not_found,not_found,not_found,http://api.geonames.org/search?type=json&south=53.766667&username=jaguillette&featureClass=P&east=44.933333&name=%D0%BB%D1%83%D1%85%D0%BE%D0%B2%D1%81%D0%BA&north=61.766667&west=36.933333,geonames,кострома,луховск,14
69,207,not_found,лухов,not_found,not_found,not_found,not_found,not_found,not_found,http://api.geonames.org/search?type=json&south=53.766667&username=jaguillette&featureClass=P&east=44.933333&name=%D0%BB%D1%83%D1%85%D0%BE%D0%B2&north=61.766667&west=36.933333,geonames,кострома,луховск,14
70,208,Karpov,карпов,Tambov,Russia,51.83082,41.89157,552251,RU,http://api.geonames.org/search?type=json&south=38.6&username=jaguillette&featureClass=P&east=180&name=%D0%BA%D0%B0%D1%80%D0%BF%D0%BE%D0%B2&north=78.0&west=24.8,geonames,нот_ин_теxт,карпов,0
71,208,Karpov,карпов,Volgograd,Russia,49.68333,46.18333,552252,RU,http://api.geonames.org/search?type=json&south=38.6&username=jaguillette&featureClass=P&east=180&name=%D0%BA%D0%B0%D1%80%D0%BF%D0%BE%D0%B2&north=78.0&west=24.8,geonames,нот_ин_теxт,карпов,0
72,208,Karpov,карпов,Rostov,Russia,47.60262,41.87877,552254,RU,http://api.geonames.org/search?type=json&south=38.6&username=jaguillette&featureClass=P&east=180&name=%D0%BA%D0%B0%D1%80%D0%BF%D0%BE%D0%B2&north=78.0&west=24.8,geonames,нот_ин_теxт,карпов,0
73,208,Karpov,карпов,Chelyabinsk,Russia,54.4,61.3,1504340,RU,http://api.geonames.org/search?type=json&south=38.6&username=jaguillette&featureClass=P&east=180&name=%D0%BA%D0%B0%D1%80%D0%BF%D0%BE%D0%B2&north=78.0&west=24.8,geonames,нот_ин_теxт,карпов,0
74,208,Karpov,карпов,Brjansk,Russia,53.04028,35.0075,819995,RU,http://api.geonames.org/search?type=json&south=38.6&username=jaguillette&featureClass=P&east=180&name=%D0%BA%D0%B0%D1%80%D0%BF%D0%BE%D0%B2&north=78.0&west=24.8,geonames,нот_ин_теxт,карпов,0
75,208,Karpov,карпов,Astrakhan,Russia,48.11694,45.66139,552253,RU,http://api.geonames.org/search?type=json&south=38.6&username=jaguillette&featureClass=P&east=180&name=%D0%BA%D0%B0%D1%80%D0%BF%D0%BE%D0%B2&north=78.0&west=24.8,geonames,нот_ин_теxт,карпов,0
76,208,Karpov,карпов,,Kazakhstan,50.81667,50.56667,609514,KZ,http://api.geonames.org/search?type=json&south=38.6&username=jaguillette&featureClass=P&east=180&name=%D0%BA%D0%B0%D1%80%D0%BF%D0%BE%D0%B2&north=78.0&west=24.8,geonames,нот_ин_теxт,карпов,0
77,208,Karpov,карпов,,Kazakhstan,50.61667,50.7,609515,KZ,http://api.geonames.org/search?type=json&south=38.6&username=jaguillette&featureClass=P&east=180&name=%D0%BA%D0%B0%D1%80%D0%BF%D0%BE%D0%B2&north=78.0&west=24.8,geonames,нот_ин_теxт,карпов,0
78,208,Karpov,карпов,,Kazakhstan,50.31667,49.18333,609516,KZ,http://api.geonames.org/search?type=json&south=38.6&username=jaguillette&featureClass=P&east=180&name=%D0%BA%D0%B0%D1%80%D0%BF%D0%BE%D0%B2&north=78.0&west=24.8,geonames,нот_ин_теxт,карпов,0
79,208,Karpov,карпов,,Kazakhstan,50.28333,50.25,609517,KZ,http://api.geonames.org/search?type=json&south=38.6&username=jaguillette&featureClass=P&east=180&name=%D0%BA%D0%B0%D1%80%D0%BF%D0%BE%D0%B2&north=78.0&west=24.8,geonames,нот_ин_теxт,карпов,0
80,208,Karpovo,карпов,,Kazakhstan,51.46667,50.56667,609513,KZ,http://api.geonames.org/search?type=json&south=38.6&username=jaguillette&featureClass=P&east=180&name=%D0%BA%D0%B0%D1%80%D0%BF%D0%BE%D0%B2&north=78.0&west=24.8,geonames,нот_ин_теxт,карпов,0
81,208,Karpovka,карпов,Rostov,Russia,49.15642,40.0481,552242,RU,http://api.geonames.org/search?type=json&south=38.6&username=jaguillette&featureClass=P&east=180&name=%D0%BA%D0%B0%D1%80%D0%BF%D0%BE%D0%B2&north=78.0&west=24.8,geonames,нот_ин_теxт,карпов,0
82,209,not_found,царевосанчурск,not_found,not_found,not_found,not_found,not_found,not_found,http://api.geonames.org/search?type=json&south=54.6&username=jaguillette&featureClass=P&east=53.65&name=%D1%86%D0%B0%D1%80%D0%B5%D0%B2%D0%BE%D1%81%D0%B0%D0%BD%D1%87%D1%83%D1%80%D1%81%D0%BA&north=62.6&west=45.65,geonames,вятск,царевосанчурск,7
83,209,not_found,царевосанчур,not_found,not_found,not_found,not_found,not_found,not_found,http://api.geonames.org/search?type=json&south=54.6&username=jaguillette&featureClass=P&east=53.65&name=%D1%86%D0%B0%D1%80%D0%B5%D0%B2%D0%BE%D1%81%D0%B0%D0%BD%D1%87%D1%83%D1%80&north=62.6&west=45.65,geonames,вятск,царевосанчурск,7
84,212,not_found,володимерск,not_found,not_found,not_found,not_found,not_found,not_found,http://api.geonames.org/search?type=json&south=52.133333&username=jaguillette&featureClass=P&east=44.416667&name=%D0%B2%D0%BE%D0%BB%D0%BE%D0%B4%D0%B8%D0%BC%D0%B5%D1%80%D1%81%D0%BA&north=60.133333&west=36.416667,geonames,владимерск,володимерск,3
85,212,not_found,володимер,not_found,not_found,not_found,not_found,not_found,not_found,http://api.geonames.org/search?type=json&south=52.133333&username=jaguillette&featureClass=P&east=44.416667&name=%D0%B2%D0%BE%D0%BB%D0%BE%D0%B4%D0%B8%D0%BC%D0%B5%D1%80&north=60.133333&west=36.416667,geonames,владимерск,володимерск,3
86,213,not_found,донков,not_found,not_found,not_found,not_found,not_found,not_found,http://api.geonames.org/search?type=json&south=53.0517&username=jaguillette&featureClass=P&east=41.6952&name=%D0%B4%D0%BE%D0%BD%D0%BA%D0%BE%D0%B2&north=55.9254&west=38.154,geonames,рязанск,донков,28
87,214,not_found,опочек,not_found,not_found,not_found,not_found,not_found,not_found,http://api.geonames.org/search?type=json&south=38.6&username=jaguillette&featureClass=P&east=180&name=%D0%BE%D0%BF%D0%BE%D1%87%D0%B5%D0%BA&north=78.0&west=24.8,geonames,нот_ин_теxт,опочек,0
88,215,Nerchinsk,нерчинск,Zabaykalsky,Russia,51.98333,116.58333,2019326,RU,http://api.geonames.org/search?type=json&south=46.5&username=jaguillette&featureClass=P&east=180&name=%D0%BD%D0%B5%D1%80%D1%87%D0%B8%D0%BD%D1%81%D0%BA&north=90&west=91.4,geonames,иркутск,нерчинск,9
89,215,Nerchinskiy Zavod,нерчинск,Zabaykalsky,Russia,51.30829,119.61597,2019323,RU,http://api.geonames.org/search?type=json&south=46.5&username=jaguillette&featureClass=P&east=180&name=%D0%BD%D0%B5%D1%80%D1%87%D0%B8%D0%BD%D1%81%D0%BA&north=90&west=91.4,geonames,иркутск,нерчинск,9
90,216,Star',стар,Brjansk,Russia,53.62362,34.15183,489271,RU,http://api.geonames.org/search?type=json&south=38.6&username=jaguillette&featureClass=P&east=180&name=%D1%81%D1%82%D0%B0%D1%80&north=78.0&west=24.8,geonames,нот_ин_теxт,стар,0
91,216,Star’,стар,Novgorod,Russia,57.3263,32.1938,7094965,RU,http://api.geonames.org/search?type=json&south=38.6&username=jaguillette&featureClass=P&east=180&name=%D1%81%D1%82%D0%B0%D1%80&north=78.0&west=24.8,geonames,нот_ин_теxт,стар,0
92,216,Star’,стар,Vitebsk,Belarus,54.9054,29.4266,621540,BY,http://api.geonames.org/search?type=json&south=38.6&username=jaguillette&featureClass=P&east=180&name=%D1%81%D1%82%D0%B0%D1%80&north=78.0&west=24.8,geonames,нот_ин_теxт,стар,0
93,216,Star’,стар,Vitebsk,Belarus,54.5603,30.2323,813175,BY,http://api.geonames.org/search?type=json&south=38.6&username=jaguillette&featureClass=P&east=180&name=%D1%81%D1%82%D0%B0%D1%80&north=78.0&west=24.8,geonames,нот_ин_теxт,стар,0
94,216,Star’,стар,Vitebsk,Belarus,54.9446,30.6249,8280278,BY,http://api.geonames.org/search?type=json&south=38.6&username=jaguillette&featureClass=P&east=180&name=%D1%81%D1%82%D0%B0%D1%80&north=78.0&west=24.8,geonames,нот_ин_теxт,стар,0
95,216,Starogryaznoye,стар,Tambov,Russia,53.25113,41.49454,488828,RU,http://api.geonames.org/search?type=json&south=38.6&username=jaguillette&featureClass=P&east=180&name=%D1%81%D1%82%D0%B0%D1%80&north=78.0&west=24.8,geonames,нот_ин_теxт,стар,0
96,216,Starozaimka,стар,Tjumen,Russia,56.51926,66.84142,1490937,RU,http://api.geonames.org/search?type=json&south=38.6&username=jaguillette&featureClass=P&east=180&name=%D1%81%D1%82%D0%B0%D1%80&north=78.0&west=24.8,geonames,нот_ин_теxт,стар,0
97,216,Staraya Chemrovka,стар,Altai Krai,Russia,52.66018,85.18175,1491043,RU,http://api.geonames.org/search?type=json&south=38.6&username=jaguillette&featureClass=P&east=180&name=%D1%81%D1%82%D0%B0%D1%80&north=78.0&west=24.8,geonames,нот_ин_теxт,стар,0
98,216,Star Chitak,стар,Kŭrdzhali,Bulgaria,41.66667,25.21667,726843,BG,http://api.geonames.org/search?type=json&south=38.6&username=jaguillette&featureClass=P&east=180&name=%D1%81%D1%82%D0%B0%D1%80&north=78.0&west=24.8,geonames,нот_ин_теxт,стар,0
99,216,Staryy Saltiv,стар,Kharkiv,Ukraine,50.07619,36.78852,692703,UA,http://api.geonames.org/search?type=json&south=38.6&username=jaguillette&featureClass=P&east=180&name=%D1%81%D1%82%D0%B0%D1%80&north=78.0&west=24.8,geonames,нот_ин_теxт,стар,0
100,216,Staryy Pochinok,стар,Vologda,Russia,60.31166,46.18286,487924,RU,http://api.geonames.org/search?type=json&south=38.6&username=jaguillette&featureClass=P&east=180&name=%D1%81%D1%82%D0%B0%D1%80&north=78.0&west=24.8,geonames,нот_ин_теxт,стар,0
101,216,Staryye Kamyshly,стар,Bashkortostan,Russia,54.94806,55.76083,488087,RU,http://api.geonames.org/search?type=json&south=38.6&username=jaguillette&featureClass=P&east=180&name=%D1%81%D1%82%D0%B0%D1%80&north=78.0&west=24.8,geonames,нот_ин_теxт,стар,0
102,216,Staroye Rogovoye,стар,Kursk,Russia,51.4476,37.9557,488335,RU,http://api.geonames.org/search?type=json&south=38.6&username=jaguillette&featureClass=P&east=180&name=%D1%81%D1%82%D0%B0%D1%80&north=78.0&west=24.8,geonames,нот_ин_теxт,стар,0
103,216,Staroye Gorokhovo,стар,Orjol,Russia,52.55016,36.16757,488450,RU,http://api.geonames.org/search?type=json&south=38.6&username=jaguillette&featureClass=P&east=180&name=%D1%81%D1%82%D0%B0%D1%80&north=78.0&west=24.8,geonames,нот_ин_теxт,стар,0
104,216,Staraya Racheyka,стар,Samara,Russia,53.3781,48.0221,489096,RU,http://api.geonames.org/search?type=json&south=38.6&username=jaguillette&featureClass=P&east=180&name=%D1%81%D1%82%D0%B0%D1%80&north=78.0&west=24.8,geonames,нот_ин_теxт,стар,0
105,216,Staraya Ivantsovka,стар,Volgograd,Russia,50.03876,46.71151,489205,RU,http://api.geonames.org/search?type=json&south=38.6&username=jaguillette&featureClass=P&east=180&name=%D1%81%D1%82%D0%B0%D1%80&north=78.0&west=24.8,geonames,нот_ин_теxт,стар,0
106,216,Staraya Chigla,стар,Voronezj,Russia,51.2866,40.3842,489232,RU,http://api.geonames.org/search?type=json&south=38.6&username=jaguillette&featureClass=P&east=180&name=%D1%81%D1%82%D0%B0%D1%80&north=78.0&west=24.8,geonames,нот_ин_теxт,стар,0
107,216,Staraya Sama,стар,Sverdlovsk,Russia,60.20333,60.37472,1493156,RU,http://api.geonames.org/search?type=json&south=38.6&username=jaguillette&featureClass=P&east=180&name=%D1%81%D1%82%D0%B0%D1%80&north=78.0&west=24.8,geonames,нот_ин_теxт,стар,0
108,216,Staryy Togul,стар,Altai Krai,Russia,53.4291,85.9006,1490913,RU,http://api.geonames.org/search?type=json&south=38.6&username=jaguillette&featureClass=P&east=180&name=%D1%81%D1%82%D0%B0%D1%80&north=78.0&west=24.8,geonames,нот_ин_теxт,стар,0
109,216,Staryy Mayzass,стар,Novosibirsk,Russia,56.59159,76.85986,1490919,RU,http://api.geonames.org/search?type=json&south=38.6&username=jaguillette&featureClass=P&east=180&name=%D1%81%D1%82%D0%B0%D1%80&north=78.0&west=24.8,geonames,нот_ин_теxт,стар,0
110,216,Staroye Shadrino,стар,Tjumen,Russia,56.1624,65.8713,1490939,RU,http://api.geonames.org/search?type=json&south=38.6&username=jaguillette&featureClass=P&east=180&name=%D1%81%D1%82%D0%B0%D1%80&north=78.0&west=24.8,geonames,нот_ин_теxт,стар,0
111,216,Staryy Ukyrchelon,стар,Respublika Buryatiya,Russia,50.5451,104.9156,2014499,RU,http://api.geonames.org/search?type=json&south=38.6&username=jaguillette&featureClass=P&east=180&name=%D1%81%D1%82%D0%B0%D1%80&north=78.0&west=24.8,geonames,нот_ин_теxт,стар,0
112,216,Staryy Durulguy,стар,Zabaykalsky,Russia,50.46667,114.3,2016051,RU,http://api.geonames.org/search?type=json&south=38.6&username=jaguillette&featureClass=P&east=180&name=%D1%81%D1%82%D0%B0%D1%80&north=78.0&west=24.8,geonames,нот_ин_теxт,стар,0
113,216,Staraya Kurba,стар,Respublika Buryatiya,Russia,52.00616,108.51801,2016085,RU,http://api.geonames.org/search?type=json&south=38.6&username=jaguillette&featureClass=P&east=180&name=%D1%81%D1%82%D0%B0%D1%80&north=78.0&west=24.8,geonames,нот_ин_теxт,стар,0
114,216,Staroye Gvozdino,стар,Tverskaya,Russia,57.93629,37.05096,488445,RU,http://api.geonames.org/search?type=json&south=38.6&username=jaguillette&featureClass=P&east=180&name=%D1%81%D1%82%D0%B0%D1%80&north=78.0&west=24.8,geonames,нот_ин_теxт,стар,0
115,216,Staroturbasly,стар,Bashkortostan,Russia,54.94453,56.11892,488599,RU,http://api.geonames.org/search?type=json&south=38.6&username=jaguillette&featureClass=P&east=180&name=%D1%81%D1%82%D0%B0%D1%80&north=78.0&west=24.8,geonames,нот_ин_теxт,стар,0
116,216,Staryy Merchyk,стар,Kharkiv,Ukraine,49.98147,35.75904,692709,UA,http://api.geonames.org/search?type=json&south=38.6&username=jaguillette&featureClass=P&east=180&name=%D1%81%D1%82%D0%B0%D1%80&north=78.0&west=24.8,geonames,нот_ин_теxт,стар,0
117,216,Staraya Stepanovka,стар,Penza,Russia,53.76358,45.16493,487701,RU,http://api.geonames.org/search?type=json&south=38.6&username=jaguillette&featureClass=P&east=180&name=%D1%81%D1%82%D0%B0%D1%80&north=78.0&west=24.8,geonames,нот_ин_теxт,стар,0
118,216,Staryy Vershaut,стар,Penza,Russia,52.53139,45.775,487866,RU,http://api.geonames.org/search?type=json&south=38.6&username=jaguillette&featureClass=P&east=180&name=%D1%81%D1%82%D0%B0%D1%80&north=78.0&west=24.8,geonames,нот_ин_теxт,стар,0
119,216,Staryy Utchan,стар,Udmurtiya,Russia,56.16434,52.33944,487870,RU,http://api.geonames.org/search?type=json&south=38.6&username=jaguillette&featureClass=P&east=180&name=%D1%81%D1%82%D0%B0%D1%80&north=78.0&west=24.8,geonames,нот_ин_теxт,стар,0
120,216,Staryy Tor”yal,стар,Mariy-El,Russia,56.96194,48.78917,487880,RU,http://api.geonames.org/search?type=json&south=38.6&username=jaguillette&featureClass=P&east=180&name=%D1%81%D1%82%D0%B0%D1%80&north=78.0&west=24.8,geonames,нот_ин_теxт,стар,0
121,216,Staryy Studenets,стар,Tatarstan,Russia,54.88232,48.26127,487889,RU,http://api.geonames.org/search?type=json&south=38.6&username=jaguillette&featureClass=P&east=180&name=%D1%81%D1%82%D0%B0%D1%80&north=78.0&west=24.8,geonames,нот_ин_теxт,стар,0
122,216,Staryy Sokulak,стар,Orenburg,Russia,52.05657,56.4057,487892,RU,http://api.geonames.org/search?type=json&south=38.6&username=jaguillette&featureClass=P&east=180&name=%D1%81%D1%82%D0%B0%D1%80&north=78.0&west=24.8,geonames,нот_ин_теxт,стар,0
123,216,Staryy Shagirt,стар,Perm,Russia,56.45223,55.20033,487901,RU,http://api.geonames.org/search?type=json&south=38.6&username=jaguillette&featureClass=P&east=180&name=%D1%81%D1%82%D0%B0%D1%80&north=78.0&west=24.8,geonames,нот_ин_теxт,стар,0
124,216,Staryy Picheur,стар,Ulyanovsk,Russia,52.87202,47.06011,487925,RU,http://api.geonames.org/search?type=json&south=38.6&username=jaguillette&featureClass=P&east=180&name=%D1%81%D1%82%D0%B0%D1%80&north=78.0&west=24.8,geonames,нот_ин_теxт,стар,0
125,216,Staryy Mutebash,стар,Bashkortostan,Russia,56.22243,56.2821,487932,RU,http://api.geonames.org/search?type=json&south=38.6&username=jaguillette&featureClass=P&east=180&name=%D1%81%D1%82%D0%B0%D1%80&north=78.0&west=24.8,geonames,нот_ин_теxт,стар,0
126,216,Staryy Kych,стар,Udmurtiya,Russia,57.5339,53.7207,487945,RU,http://api.geonames.org/search?type=json&south=38.6&username=jaguillette&featureClass=P&east=180&name=%D1%81%D1%82%D0%B0%D1%80&north=78.0&west=24.8,geonames,нот_ин_теxт,стар,0
127,216,Staryy Kurdym,стар,Bashkortostan,Russia,56.254,55.4899,487951,RU,http://api.geonames.org/search?type=json&south=38.6&username=jaguillette&featureClass=P&east=180&name=%D1%81%D1%82%D0%B0%D1%80&north=78.0&west=24.8,geonames,нот_ин_теxт,стар,0
128,216,Staryy Kryazhim,стар,Penza,Russia,53.07421,46.19278,487956,RU,http://api.geonames.org/search?type=json&south=38.6&username=jaguillette&featureClass=P&east=180&name=%D1%81%D1%82%D0%B0%D1%80&north=78.0&west=24.8,geonames,нот_ин_теxт,стар,0
129,216,Staryy Iryuk,стар,Kirov,Russia,56.5585,50.5603,487983,RU,http://api.geonames.org/search?type=json&south=38.6&username=jaguillette&featureClass=P&east=180&name=%D1%81%D1%82%D0%B0%D1%80&north=78.0&west=24.8,geonames,нот_ин_теxт,стар,0
130,216,Staryye Turdaki,стар,Mordoviya,Russia,53.91563,45.48107,488018,RU,http://api.geonames.org/search?type=json&south=38.6&username=jaguillette&featureClass=P&east=180&name=%D1%81%D1%82%D0%B0%D1%80&north=78.0&west=24.8,geonames,нот_ин_теxт,стар,0
131,216,Staryye Maklaushi,стар,Ulyanovsk,Russia,54.4556,47.4595,488062,RU,http://api.geonames.org/search?type=json&south=38.6&username=jaguillette&featureClass=P&east=180&name=%D1%81%D1%82%D0%B0%D1%80&north=78.0&west=24.8,geonames,нот_ин_теxт,стар,0
132,216,Staryye Kazanchi,стар,Bashkortostan,Russia,56.20565,56.22428,488080,RU,http://api.geonames.org/search?type=json&south=38.6&username=jaguillette&featureClass=P&east=180&name=%D1%81%D1%82%D0%B0%D1%80&north=78.0&west=24.8,geonames,нот_ин_теxт,стар,0
133,216,Staryye Chukaly,стар,Chuvashia,Russia,54.7128,47.20327,488105,RU,http://api.geonames.org/search?type=json&south=38.6&username=jaguillette&featureClass=P&east=180&name=%D1%81%D1%82%D0%B0%D1%80&north=78.0&west=24.8,geonames,нот_ин_теxт,стар,0
134,216,Staryye Chukaly,стар,Tatarstan,Russia,54.6488,47.5409,488106,RU,http://api.geonames.org/search?type=json&south=38.6&username=jaguillette&featureClass=P&east=180&name=%D1%81%D1%82%D0%B0%D1%80&north=78.0&west=24.8,geonames,нот_ин_теxт,стар,0
135,216,Staryye Arti,стар,Sverdlovsk,Russia,56.31935,58.59195,488129,RU,http://api.geonames.org/search?type=json&south=38.6&username=jaguillette&featureClass=P&east=180&name=%D1%81%D1%82%D0%B0%D1%80&north=78.0&west=24.8,geonames,нот_ин_теxт,стар,0
136,216,Staryye Algashi,стар,Ulyanovsk,Russia,54.6577,47.7367,488130,RU,http://api.geonames.org/search?type=json&south=38.6&username=jaguillette&featureClass=P&east=180&name=%D1%81%D1%82%D0%B0%D1%80&north=78.0&west=24.8,geonames,нот_ин_теxт,стар,0
137,216,Staryy Dvor,стар,Vladimir,Russia,56.28563,40.18315,488133,RU,http://api.geonames.org/search?type=json&south=38.6&username=jaguillette&featureClass=P&east=180&name=%D1%81%D1%82%D0%B0%D1%80&north=78.0&west=24.8,geonames,нот_ин_теxт,стар,0
138,216,Staryy Chukhlem,стар,Komi Republic,Russia,61.23758,50.17686,488140,RU,http://api.geonames.org/search?type=json&south=38.6&username=jaguillette&featureClass=P&east=180&name=%D1%81%D1%82%D0%B0%D1%80&north=78.0&west=24.8,geonames,нот_ин_теxт,стар,0
139,216,Staryy Chirchim,стар,Penza,Russia,52.76747,46.36169,488141,RU,http://api.geonames.org/search?type=json&south=38.6&username=jaguillette&featureClass=P&east=180&name=%D1%81%D1%82%D0%B0%D1%80&north=78.0&west=24.8,geonames,нот_ин_теxт,стар,0
140,216,Staryy Chad,стар,Perm,Russia,56.9269,55.4279,488143,RU,http://api.geonames.org/search?type=json&south=38.6&username=jaguillette&featureClass=P&east=180&name=%D1%81%D1%82%D0%B0%D1%80&north=78.0&west=24.8,geonames,нот_ин_теxт,стар,0
141,216,Staryy Bereznyak,стар,Udmurtiya,Russia,56.33239,52.44066,488159,RU,http://api.geonames.org/search?type=json&south=38.6&username=jaguillette&featureClass=P&east=180&name=%D1%81%D1%82%D0%B0%D1%80&north=78.0&west=24.8,geonames,нот_ин_теxт,стар,0
142,216,Staryy Atlash,стар,Ulyanovsk,Russia,52.78719,47.30758,488165,RU,http://api.geonames.org/search?type=json&south=38.6&username=jaguillette&featureClass=P&east=180&name=%D1%81%D1%82%D0%B0%D1%80&north=78.0&west=24.8,geonames,нот_ин_теxт,стар,0
143,216,Staryy Ashit,стар,Tatarstan,Russia,56.34685,49.66425,488166,RU,http://api.geonames.org/search?type=json&south=38.6&username=jaguillette&featureClass=P&east=180&name=%D1%81%D1%82%D0%B0%D1%80&north=78.0&west=24.8,geonames,нот_ин_теxт,стар,0
144,216,Staryy Amanak,стар,Samara,Russia,53.70596,51.96943,488169,RU,http://api.geonames.org/search?type=json&south=38.6&username=jaguillette&featureClass=P&east=180&name=%D1%81%D1%82%D0%B0%D1%80&north=78.0&west=24.8,geonames,нот_ин_теxт,стар,0
145,216,Staroye Zakharkino,стар,Penza,Russia,52.90111,45.23799,488223,RU,http://api.geonames.org/search?type=json&south=38.6&username=jaguillette&featureClass=P&east=180&name=%D1%81%D1%82%D0%B0%D1%80&north=78.0&west=24.8,geonames,нот_ин_теxт,стар,0
146,216,Staroye Terizmorgo,стар,Mordoviya,Russia,54.26032,44.53154,488269,RU,http://api.geonames.org/search?type=json&south=38.6&username=jaguillette&featureClass=P&east=180&name=%D1%81%D1%82%D0%B0%D1%80&north=78.0&west=24.8,geonames,нот_ин_теxт,стар,0
147,216,Staroye Selo,стар,Tverskaya,Russia,57.27105,32.79501,488312,RU,http://api.geonames.org/search?type=json&south=38.6&username=jaguillette&featureClass=P&east=180&name=%D1%81%D1%82%D0%B0%D1%80&north=78.0&west=24.8,geonames,нот_ин_теxт,стар,0
148,216,Staroye Pogorelovo,стар,Ulyanovsk,Russia,54.12281,46.85839,488349,RU,http://api.geonames.org/search?type=json&south=38.6&username=jaguillette&featureClass=P&east=180&name=%D1%81%D1%82%D0%B0%D1%80&north=78.0&west=24.8,geonames,нот_ин_теxт,стар,0
149,216,Staroye Opokino,стар,Vladimir,Russia,55.73242,40.90838,488369,RU,http://api.geonames.org/search?type=json&south=38.6&username=jaguillette&featureClass=P&east=180&name=%D1%81%D1%82%D0%B0%D1%80&north=78.0&west=24.8,geonames,нот_ин_теxт,стар,0
150,216,Staroye Drakino,стар,Mordoviya,Russia,53.895,43.95111,488467,RU,http://api.geonames.org/search?type=json&south=38.6&username=jaguillette&featureClass=P&east=180&name=%D1%81%D1%82%D0%B0%D1%80&north=78.0&west=24.8,geonames,нот_ин_теxт,стар,0
151,216,Staroye Churilino,стар,Tatarstan,Russia,56.02702,49.72911,488472,RU,http://api.geonames.org/search?type=json&south=38.6&username=jaguillette&featureClass=P&east=180&name=%D1%81%D1%82%D0%B0%D1%80&north=78.0&west=24.8,geonames,нот_ин_теxт,стар,0
152,216,Staroye Chirkovo,стар,Ulyanovsk,Russia,52.89686,46.96996,488474,RU,http://api.geonames.org/search?type=json&south=38.6&username=jaguillette&featureClass=P&east=180&name=%D1%81%D1%82%D0%B0%D1%80&north=78.0&west=24.8,geonames,нот_ин_теxт,стар,0
153,216,Staroye Bryzgovo,стар,Novgorod,Russia,58.36085,34.28562,488483,RU,http://api.geonames.org/search?type=json&south=38.6&username=jaguillette&featureClass=P&east=180&name=%D1%81%D1%82%D0%B0%D1%80&north=78.0&west=24.8,geonames,нот_ин_теxт,стар,0
154,216,Staroye Badikovo,стар,Mordoviya,Russia,53.84005,42.69783,488504,RU,http://api.geonames.org/search?type=json&south=38.6&username=jaguillette&featureClass=P&east=180&name=%D1%81%D1%82%D0%B0%D1%80&north=78.0&west=24.8,geonames,нот_ин_теxт,стар,0
155,216,Starovaryash,стар,Bashkortostan,Russia,56.0856,55.2872,488592,RU,http://api.geonames.org/search?type=json&south=38.6&username=jaguillette&featureClass=P&east=180&name=%D1%81%D1%82%D0%B0%D1%80&north=78.0&west=24.8,geonames,нот_ин_теxт,стар,0
156,216,Starotarbeyevo,стар,Tambov,Russia,52.8541,40.3268,488614,RU,http://api.geonames.org/search?type=json&south=38.6&username=jaguillette&featureClass=P&east=180&name=%D1%81%D1%82%D0%B0%D1%80&north=78.0&west=24.8,geonames,нот_ин_теxт,стар,0
157,216,Staroshaygovo,стар,Mordoviya,Russia,54.30763,44.47281,488638,RU,http://api.geonames.org/search?type=json&south=38.6&username=jaguillette&featureClass=P&east=180&name=%D1%81%D1%82%D0%B0%D1%80&north=78.0&west=24.8,geonames,нот_ин_теxт,стар,0
158,216,Staraya Mushta,стар,Bashkortostan,Russia,55.80256,54.24031,488736,RU,http://api.geonames.org/search?type=json&south=38.6&username=jaguillette&featureClass=P&east=180&name=%D1%81%D1%82%D0%B0%D1%80&north=78.0&west=24.8,geonames,нот_ин_теxт,стар,0
159,216,Staro-Khmelevoye,стар,Tambov,Russia,52.7964,40.5276,488798,RU,http://api.geonames.org/search?type=json&south=38.6&username=jaguillette&featureClass=P&east=180&name=%D1%81%D1%82%D0%B0%D1%80&north=78.0&west=24.8,geonames,нот_ин_теxт,стар,0
160,216,Starokalkash,стар,Bashkortostan,Russia,53.48395,55.39366,488813,RU,http://api.geonames.org/search?type=json&south=38.6&username=jaguillette&featureClass=P&east=180&name=%D1%81%D1%82%D0%B0%D1%80&north=78.0&west=24.8,geonames,нот_ин_теxт,стар,0
161,216,Staryy Akbulyak,стар,Bashkortostan,Russia,55.89249,56.74173,488904,RU,http://api.geonames.org/search?type=json&south=38.6&username=jaguillette&featureClass=P&east=180&name=%D1%81%D1%82%D0%B0%D1%80&north=78.0&west=24.8,geonames,нот_ин_теxт,стар,0
162,216,Staraya Zhukovka,стар,Saratov,Russia,52.20002,46.5185,488999,RU,http://api.geonames.org/search?type=json&south=38.6&username=jaguillette&featureClass=P&east=180&name=%D1%81%D1%82%D0%B0%D1%80&north=78.0&west=24.8,geonames,нот_ин_теxт,стар,0
163,216,Staraya Tushka,стар,Kirov,Russia,56.74419,50.50565,489033,RU,http://api.geonames.org/search?type=json&south=38.6&username=jaguillette&featureClass=P&east=180&name=%D1%81%D1%82%D0%B0%D1%80&north=78.0&west=24.8,geonames,нот_ин_теxт,стар,0
164,216,Staraya Topovka,стар,Saratov,Russia,50.97355,45.31427,489044,RU,http://api.geonames.org/search?type=json&south=38.6&username=jaguillette&featureClass=P&east=180&name=%D1%81%D1%82%D0%B0%D1%80&north=78.0&west=24.8,geonames,нот_ин_теxт,стар,0
165,216,Staraya Tolkovka,стар,Penza,Russia,53.43887,43.46955,489046,RU,http://api.geonames.org/search?type=json&south=38.6&username=jaguillette&featureClass=P&east=180&name=%D1%81%D1%82%D0%B0%D1%80&north=78.0&west=24.8,geonames,нот_ин_теxт,стар,0
166,216,Staraya Porubezhka,стар,Saratov,Russia,52.0589,49.1863,489101,RU,http://api.geonames.org/search?type=json&south=38.6&username=jaguillette&featureClass=P&east=180&name=%D1%81%D1%82%D0%B0%D1%80&north=78.0&west=24.8,geonames,нот_ин_теxт,стар,0
167,216,Staraya Omga,стар,Udmurtiya,Russia,56.57493,51.24843,489121,RU,http://api.geonames.org/search?type=json&south=38.6&username=jaguillette&featureClass=P&east=180&name=%D1%81%D1%82%D0%B0%D1%80&north=78.0&west=24.8,geonames,нот_ин_теxт,стар,0
168,216,Staraya Kriusha,стар,Voronezj,Russia,50.1997,41.1507,489165,RU,http://api.geonames.org/search?type=json&south=38.6&username=jaguillette&featureClass=P&east=180&name=%D1%81%D1%82%D0%B0%D1%80&north=78.0&west=24.8,geonames,нот_ин_теxт,стар,0
169,216,Staraya Kalitva,стар,Voronezj,Russia,50.13853,39.98449,489202,RU,http://api.geonames.org/search?type=json&south=38.6&username=jaguillette&featureClass=P&east=180&name=%D1%81%D1%82%D0%B0%D1%80&north=78.0&west=24.8,geonames,нот_ин_теxт,стар,0
170,216,Staraya Ivanovka,стар,Saratov,Russia,51.5969,44.57164,489208,RU,http://api.geonames.org/search?type=json&south=38.6&username=jaguillette&featureClass=P&east=180&name=%D1%81%D1%82%D0%B0%D1%80&north=78.0&west=24.8,geonames,нот_ин_теxт,стар,0
171,216,Staraya Fëdorovka,стар,Mordoviya,Russia,54.48997,44.7567,489220,RU,http://api.geonames.org/search?type=json&south=38.6&username=jaguillette&featureClass=P&east=180&name=%D1%81%D1%82%D0%B0%D1%80&north=78.0&west=24.8,geonames,нот_ин_теxт,стар,0
172,216,Staraya Chuncha,стар,Udmurtiya,Russia,56.98613,51.97565,489229,RU,http://api.geonames.org/search?type=json&south=38.6&username=jaguillette&featureClass=P&east=180&name=%D1%81%D1%82%D0%B0%D1%80&north=78.0&west=24.8,geonames,нот_ин_теxт,стар,0
173,216,Staraya Berëzovka,стар,Nizjnij Novgorod,Russia,55.49138,45.72576,489251,RU,http://api.geonames.org/search?type=json&south=38.6&username=jaguillette&featureClass=P&east=180&name=%D1%81%D1%82%D0%B0%D1%80&north=78.0&west=24.8,geonames,нот_ин_теxт,стар,0
174,216,Staraya Avgura,стар,Mordoviya,Russia,54.29514,44.2139,489256,RU,http://api.geonames.org/search?type=json&south=38.6&username=jaguillette&featureClass=P&east=180&name=%D1%81%D1%82%D0%B0%D1%80&north=78.0&west=24.8,geonames,нот_ин_теxт,стар,0
175,216,Staryy Tyazhin,стар,Kemerovo,Russia,56.13746,88.57028,1490911,RU,http://api.geonames.org/search?type=json&south=38.6&username=jaguillette&featureClass=P&east=180&name=%D1%81%D1%82%D0%B0%D1%80&north=78.0&west=24.8,geonames,нот_ин_теxт,стар,0
176,216,Staryy Katysh,стар,Khanty-Mansiyskiy Avtonomnyy Okrug,Russia,59.45,66.8,1490924,RU,http://api.geonames.org/search?type=json&south=38.6&username=jaguillette&featureClass=P&east=180&name=%D1%81%D1%82%D0%B0%D1%80&north=78.0&west=24.8,geonames,нот_ин_теxт,стар,0
177,216,Staryy Arlyuk,стар,Kemerovo,Russia,55.46667,84.83333,1490932,RU,http://api.geonames.org/search?type=json&south=38.6&username=jaguillette&featureClass=P&east=180&name=%D1%81%D1%82%D0%B0%D1%80&north=78.0&west=24.8,geonames,нот_ин_теxт,стар,0
178,216,Starotaraba,стар,Altai Krai,Russia,53.4017,85.4819,1490949,RU,http://api.geonames.org/search?type=json&south=38.6&username=jaguillette&featureClass=P&east=180&name=%D1%81%D1%82%D0%B0%D1%80&north=78.0&west=24.8,geonames,нот_ин_теxт,стар,0
179,216,Staryy Karapuz,стар,Novosibirsk,Russia,55.06943,78.90713,1490988,RU,http://api.geonames.org/search?type=json&south=38.6&username=jaguillette&featureClass=P&east=180&name=%D1%81%D1%82%D0%B0%D1%80&north=78.0&west=24.8,geonames,нот_ин_теxт,стар,0
180,216,Staraya Berëzovka,стар,Tomsk,Russia,58.98389,79.54813,1491046,RU,http://api.geonames.org/search?type=json&south=38.6&username=jaguillette&featureClass=P&east=180&name=%D1%81%D1%82%D0%B0%D1%80&north=78.0&west=24.8,geonames,нот_ин_теxт,стар,0
181,216,Staraya Azhinka,стар,Altai Krai,Russia,52.6388,86.3905,1491049,RU,http://api.geonames.org/search?type=json&south=38.6&username=jaguillette&featureClass=P&east=180&name=%D1%81%D1%82%D0%B0%D1%80&north=78.0&west=24.8,geonames,нот_ин_теxт,стар,0
182,216,Staryy Chindant,стар,Zabaykalsky,Russia,50.55,115.55,2016054,RU,http://api.geonames.org/search?type=json&south=38.6&username=jaguillette&featureClass=P&east=180&name=%D1%81%D1%82%D0%B0%D1%80&north=78.0&west=24.8,geonames,нот_ин_теxт,стар,0
183,216,Staroye Tataurovo,стар,Respublika Buryatiya,Russia,52.1,107.46667,2016059,RU,http://api.geonames.org/search?type=json&south=38.6&username=jaguillette&featureClass=P&east=180&name=%D1%81%D1%82%D0%B0%D1%80&north=78.0&west=24.8,geonames,нот_ин_теxт,стар,0
184,216,Staraya Zardama,стар,Zabaykalsky,Russia,50.7547,108.1802,2016081,RU,http://api.geonames.org/search?type=json&south=38.6&username=jaguillette&featureClass=P&east=180&name=%D1%81%D1%82%D0%B0%D1%80&north=78.0&west=24.8,geonames,нот_ин_теxт,стар,0
185,216,Staryy Kuzluk,стар,Udmurtiya,Russia,57.29873,51.35465,856833,RU,http://api.geonames.org/search?type=json&south=38.6&username=jaguillette&featureClass=P&east=180&name=%D1%81%D1%82%D0%B0%D1%80&north=78.0&west=24.8,geonames,нот_ин_теxт,стар,0
186,216,Staryy Koytas,стар,,Kazakhstan,52.89801,72.51888,1533571,KZ,http://api.geonames.org/search?type=json&south=38.6&username=jaguillette&featureClass=P&east=180&name=%D1%81%D1%82%D0%B0%D1%80&north=78.0&west=24.8,geonames,нот_ин_теxт,стар,0
187,216,Staraya Salaus',стар,Tatarstan,Russia,56.3656,50.3253,499295,RU,http://api.geonames.org/search?type=json&south=38.6&username=jaguillette&featureClass=P&east=180&name=%D1%81%D1%82%D0%B0%D1%80&north=78.0&west=24.8,geonames,нот_ин_теxт,стар,0
188,216,Staryy Akul'shet,стар,Irkutsk,Russia,56.0138,98.0643,1490934,RU,http://api.geonames.org/search?type=json&south=38.6&username=jaguillette&featureClass=P&east=180&name=%D1%81%D1%82%D0%B0%D1%80&north=78.0&west=24.8,geonames,нот_ин_теxт,стар,0
189,216,Staraya Bryan',стар,Respublika Buryatiya,Russia,51.58082,108.12902,2016088,RU,http://api.geonames.org/search?type=json&south=38.6&username=jaguillette&featureClass=P&east=180&name=%D1%81%D1%82%D0%B0%D1%80&north=78.0&west=24.8,geonames,нот_ин_теxт,стар,0
190,218,Shuya,шу,Ivanovo,Russia,56.84865,41.38833,493231,RU,http://api.geonames.org/search?type=json&south=52.133333&username=jaguillette&featureClass=P&east=44.416667&name=%D1%88%D1%83&north=60.133333&west=36.416667,geonames,владимерск,шу,3
191,220,not_found,повенецк,not_found,not_found,not_found,not_found,not_found,not_found,http://api.geonames.org/search?type=json&south=57.783333&username=jaguillette&featureClass=P&east=38.35&name=%D0%BF%D0%BE%D0%B2%D0%B5%D0%BD%D0%B5%D1%86%D0%BA&north=65.783333&west=30.35,geonames,олонецк,повенецк,20
192,221,not_found,ском,not_found,not_found,not_found,not_found,not_found,not_found,http://api.geonames.org/search?type=json&south=50.316667&username=jaguillette&featureClass=P&east=52.366667&name=%D1%81%D0%BA%D0%BE%D0%BC&north=58.316667&west=44.366667,geonames,синбирск,ском,30
193,222,not_found,сарск,not_found,not_found,not_found,not_found,not_found,not_found,http://api.geonames.org/search?type=json&south=52.3247&username=jaguillette&featureClass=P&east=46.7277&name=%D1%81%D0%B0%D1%80%D1%81%D0%BA&north=54.837&west=41.8373,geonames,пензенск,сарск,22
194,222,not_found,сар,not_found,not_found,not_found,not_found,not_found,not_found,http://api.geonames.org/search?type=json&south=52.3247&username=jaguillette&featureClass=P&east=46.7277&name=%D1%81%D0%B0%D1%80&north=54.837&west=41.8373,geonames,пензенск,сарск,22
