,uy_id,result_placename,searched_placename,admin1,country_name,lat,lng,src_id,country_code,url,src,namiest,uezd,partof_id,
,,,,,,,,,,,,,,,
,,,,,,,,,,,,,,,
,,,,,,,,,,,,,,,
,,,,,,,,,,,,,,,
4,157,Vytegra,вытегр,Vologda,Russia,61.00636,36.44811,469960,RU,http://api.geonames.org/search?username=jaguillette&type=json&north=65.783333&west=30.35&east=38.35&name=%D0%B2%D1%8B%D1%82%D0%B5%D0%B3%D1%80%D0%B0&south=57.783333&featureClass=P,geonames,олонецк,вытегр,20,Stemmer removed “a” when it didn’t need to
,,,,,,,,,,,,,,,
6,158,Lebedyn,лебедин,Sumy,Ukraine,50.58518,34.4849,613273,UA,http://api.geonames.org/search?username=jaguillette&type=json&north=51.5689&west=33.5563&east=38.2875&name=%D0%BB%D0%B5%D0%B1%D0%B5%D0%B4%D0%B8%D0%BD&south=48.4869&featureClass=P,geonames,харьковск,лебедин,37,Confirmed this was the right town
,,,,,,,,,,,,,,,
8,160,not_found,екатеринбургск,not_found,not_found,not_found,not_found,not_found,not_found,http://api.geonames.org/search?username=jaguillette&type=json&north=62.013889&west=52.248889&east=60.248889&name=%D0%B5%D0%BA%D0%B0%D1%82%D0%B5%D1%80%D0%B8%D0%BD%D0%B1%D1%83%D1%80%D0%B3%D1%81%D0%BA&south=54.013889&featureClass=P,geonames,пермск,екатеринбургск,23,
,,,,,,,,,,,,,,,
,,,,,,,,,,,,,,,
,,,,,,,,,,,,,,,
12,162,not_found,сапожк,not_found,not_found,not_found,not_found,not_found,not_found,http://api.geonames.org/search?username=jaguillette&type=json&north=55.9254&west=38.154&east=41.6952&name=%D1%81%D0%B0%D0%BF%D0%BE%D0%B6%D0%BA&south=53.0517&featureClass=P,geonames,рязанск,сапожк,28,
13,163,not_found,дерптск,not_found,not_found,not_found,not_found,not_found,not_found,http://api.geonames.org/search?username=jaguillette&type=json&north=60.9475&west=20.106944&east=28.106944&name=%D0%B4%D0%B5%D1%80%D0%BF%D1%82%D1%81%D0%BA&south=52.9475&featureClass=P,geonames,рижск,дерптск,27,
14,163,Tartu,дерпт,Tartu,Estonia,58.38062,26.72509,588335,EE,http://api.geonames.org/search?username=jaguillette&type=json&north=60.9475&west=20.106944&east=28.106944&name=%D0%B4%D0%B5%D1%80%D0%BF%D1%82&south=52.9475&featureClass=P,geonames,рижск,дерптск,27,
15,164,Karachev,карачев,Brjansk,Russia,53.12292,34.98517,552920,RU,http://api.geonames.org/search?username=jaguillette&type=json&north=54.0138&west=32.7557&east=39.224&name=%D0%BA%D0%B0%D1%80%D0%B0%D1%87%D0%B5%D0%B2&south=51.8511&featureClass=P,geonames,орловск,карачев,21,
16,167,not_found,якск,not_found,not_found,not_found,not_found,not_found,not_found,http://api.geonames.org/search?username=jaguillette&type=json&north=52.7866&west=37.234&east=43.0242&name=%D1%8F%D0%BA%D1%81%D0%BA&south=48.1597&featureClass=P,geonames,воронежск,якск,5,
17,167,not_found,як,not_found,not_found,not_found,not_found,not_found,not_found,http://api.geonames.org/search?username=jaguillette&type=json&north=52.7866&west=37.234&east=43.0242&name=%D1%8F%D0%BA&south=48.1597&featureClass=P,geonames,воронежск,якск,5,
18,168,Sen’kivka,сен,Chernihiv,Ukraine,52.08901,31.78039,694537,UA,http://api.geonames.org/search?username=jaguillette&type=json&north=55.194&west=29.5408&east=32.863&name=%D1%81%D0%B5%D0%BD&south=51.9042&featureClass=P,geonames,могилевск,сен,16,
19,168,Sen’kovo,сен,Mogilev,Belarus,54.3266,30.8814,622270,BY,http://api.geonames.org/search?username=jaguillette&type=json&north=55.194&west=29.5408&east=32.863&name=%D1%81%D0%B5%D0%BD&south=51.9042&featureClass=P,geonames,могилевск,сен,16,
20,168,Sen’kovo,сен,Smolensk,Russia,54.83761,32.19789,492771,RU,http://api.geonames.org/search?username=jaguillette&type=json&north=55.194&west=29.5408&east=32.863&name=%D1%81%D0%B5%D0%BD&south=51.9042&featureClass=P,geonames,могилевск,сен,16,
21,168,Sen’kov,сен,Mogilev,Belarus,53.7598,29.5789,621935,BY,http://api.geonames.org/search?username=jaguillette&type=json&north=55.194&west=29.5408&east=32.863&name=%D1%81%D0%B5%D0%BD&south=51.9042&featureClass=P,geonames,могилевск,сен,16,
22,168,Sen’kovo,сен,Mogilev,Belarus,53.9375,30.1693,622268,BY,http://api.geonames.org/search?username=jaguillette&type=json&north=55.194&west=29.5408&east=32.863&name=%D1%81%D0%B5%D0%BD&south=51.9042&featureClass=P,geonames,могилевск,сен,16,
23,168,Sen’kovo,сен,Mogilev,Belarus,53.9117,30.3977,8331388,BY,http://api.geonames.org/search?username=jaguillette&type=json&north=55.194&west=29.5408&east=32.863&name=%D1%81%D0%B5%D0%BD&south=51.9042&featureClass=P,geonames,могилевск,сен,16,
24,168,Sen’kin Rov,сен,Brjansk,Russia,53.05306,32.65128,863792,RU,http://api.geonames.org/search?username=jaguillette&type=json&north=55.194&west=29.5408&east=32.863&name=%D1%81%D0%B5%D0%BD&south=51.9042&featureClass=P,geonames,могилевск,сен,16,
25,169,Bogorodsk,богородск,Moskovskaya,Russia,55.85,38.45,575561,RU,http://api.geonames.org/search?username=jaguillette&type=json&north=56.981&west=34.3446&east=40.3419&name=%D0%B1%D0%BE%D0%B3%D0%BE%D1%80%D0%BE%D0%B4%D1%81%D0%BA&south=54.2132&featureClass=P,geonames,московск,богородск,1,
26,172,Koz'modem'yansk,козьмодемьянск,Mariy-El,Russia,56.3419,46.56353,543018,RU,http://api.geonames.org/search?username=jaguillette&type=json&north=59.790833&west=45.114444&east=53.114444&name=%D0%BA%D0%BE%D0%B7%D1%8C%D0%BC%D0%BE%D0%B4%D0%B5%D0%BC%D1%8C%D1%8F%D0%BD%D1%81%D0%BA&south=51.790833&featureClass=P,geonames,казанск,козьмодемьянск,11,
27,173,Ruza,руз,Moskovskaya,Russia,55.69898,36.19522,500303,RU,http://api.geonames.org/search?username=jaguillette&type=json&north=56.981&west=34.3446&east=40.3419&name=%D1%80%D1%83%D0%B7&south=54.2132&featureClass=P,geonames,московск,руз,1,
28,176,Shuya,шу,Ivanovo,Russia,56.84865,41.38833,493231,RU,http://api.geonames.org/search?username=jaguillette&type=json&north=60.133333&west=36.416667&east=44.416667&name=%D1%88%D1%83&south=52.133333&featureClass=P,geonames,владимерск,шу,3,
29,177,Voskresensk,воскресенск,Moskovskaya,Russia,55.31733,38.65264,471656,RU,http://api.geonames.org/search?username=jaguillette&type=json&north=56.981&west=34.3446&east=40.3419&name=%D0%B2%D0%BE%D1%81%D0%BA%D1%80%D0%B5%D1%81%D0%B5%D0%BD%D1%81%D0%BA&south=54.2132&featureClass=P,geonames,московск,воскресенск,1,
30,177,Voskresensk,воскресенск,Smolensk,Russia,55.64583,34.93861,471655,RU,http://api.geonames.org/search?username=jaguillette&type=json&north=56.981&west=34.3446&east=40.3419&name=%D0%B2%D0%BE%D1%81%D0%BA%D1%80%D0%B5%D1%81%D0%B5%D0%BD%D1%81%D0%BA&south=54.2132&featureClass=P,geonames,московск,воскресенск,1,
31,177,Voskresensk,воскресенск,Smolensk,Russia,54.98333,35.11667,471657,RU,http://api.geonames.org/search?username=jaguillette&type=json&north=56.981&west=34.3446&east=40.3419&name=%D0%B2%D0%BE%D1%81%D0%BA%D1%80%D0%B5%D1%81%D0%B5%D0%BD%D1%81%D0%BA&south=54.2132&featureClass=P,geonames,московск,воскресенск,1,
32,177,Voskresenki,воскресенск,Moskovskaya,Russia,55.84154,36.63196,471668,RU,http://api.geonames.org/search?username=jaguillette&type=json&north=56.981&west=34.3446&east=40.3419&name=%D0%B2%D0%BE%D1%81%D0%BA%D1%80%D0%B5%D1%81%D0%B5%D0%BD%D1%81%D0%BA&south=54.2132&featureClass=P,geonames,московск,воскресенск,1,
33,177,Istra,воскресенск,Moskovskaya,Russia,55.91997,36.86867,555746,RU,http://api.geonames.org/search?username=jaguillette&type=json&north=56.981&west=34.3446&east=40.3419&name=%D0%B2%D0%BE%D1%81%D0%BA%D1%80%D0%B5%D1%81%D0%B5%D0%BD%D1%81%D0%BA&south=54.2132&featureClass=P,geonames,московск,воскресенск,1,
34,179,not_found,любенск,not_found,not_found,not_found,not_found,not_found,not_found,http://api.geonames.org/search?username=jaguillette&type=json&north=51.49413&west=29.72503&east=34.35625&name=%D0%BB%D1%8E%D0%B1%D0%B5%D0%BD%D1%81%D0%BA&south=49.08008&featureClass=P,geonames,киевск,любенск,13,
35,179,not_found,любен,not_found,not_found,not_found,not_found,not_found,not_found,http://api.geonames.org/search?username=jaguillette&type=json&north=51.49413&west=29.72503&east=34.35625&name=%D0%BB%D1%8E%D0%B1%D0%B5%D0%BD&south=49.08008&featureClass=P,geonames,киевск,любенск,13,
36,181,Yefremov,ефремов,Tula,Russia,53.14806,38.09924,468390,RU,http://api.geonames.org/search?username=jaguillette&type=json&north=55.0867&west=35.5421&east=39.6827&name=%D0%B5%D1%84%D1%80%D0%B5%D0%BC%D0%BE%D0%B2&south=52.8329&featureClass=P,geonames,тульск,ефремов,35,
37,182,Borovsk,боровск,Kaluga,Russia,55.20639,36.48611,572070,RU,http://api.geonames.org/search?username=jaguillette&type=json&north=55.374&west=33.3881&east=37.3796&name=%D0%B1%D0%BE%D1%80%D0%BE%D0%B2%D1%81%D0%BA&south=53.2604&featureClass=P,geonames,калужск,боровск,12,
38,185,not_found,алатырск,not_found,not_found,not_found,not_found,not_found,not_found,http://api.geonames.org/search?username=jaguillette&type=json&north=58.316667&west=44.366667&east=52.366667&name=%D0%B0%D0%BB%D0%B0%D1%82%D1%8B%D1%80%D1%81%D0%BA&south=50.316667&featureClass=P,geonames,синбирск,алатырск,30,
39,185,Alatyr',алатыр,Chuvashia,Russia,54.8421,46.5813,583437,RU,http://api.geonames.org/search?username=jaguillette&type=json&north=58.316667&west=44.366667&east=52.366667&name=%D0%B0%D0%BB%D0%B0%D1%82%D1%8B%D1%80&south=50.316667&featureClass=P,geonames,синбирск,алатырск,30,
40,185,Alatyr’kasy,алатыр,Chuvashia,Russia,56.0395,47.54381,6198182,RU,http://api.geonames.org/search?username=jaguillette&type=json&north=58.316667&west=44.366667&east=52.366667&name=%D0%B0%D0%BB%D0%B0%D1%82%D1%8B%D1%80&south=50.316667&featureClass=P,geonames,синбирск,алатырск,30,
41,187,not_found,опочек,not_found,not_found,not_found,not_found,not_found,not_found,http://api.geonames.org/search?username=jaguillette&type=json&north=59.0651312501&west=24.1218047142&east=32.1900482178&name=%D0%BE%D0%BF%D0%BE%D1%87%D0%B5%D0%BA&south=55.1937102573&featureClass=P,geonames,псковск,опочек,25,
42,188,not_found,царевококшайск,not_found,not_found,not_found,not_found,not_found,not_found,http://api.geonames.org/search?username=jaguillette&type=json&north=59.790833&west=45.114444&east=53.114444&name=%D1%86%D0%B0%D1%80%D0%B5%D0%B2%D0%BE%D0%BA%D0%BE%D0%BA%D1%88%D0%B0%D0%B9%D1%81%D0%BA&south=51.790833&featureClass=P,geonames,казанск,царевококшайск,11,
43,188,not_found,царевококшай,not_found,not_found,not_found,not_found,not_found,not_found,http://api.geonames.org/search?username=jaguillette&type=json&north=59.790833&west=45.114444&east=53.114444&name=%D1%86%D0%B0%D1%80%D0%B5%D0%B2%D0%BE%D0%BA%D0%BE%D0%BA%D1%88%D0%B0%D0%B9&south=51.790833&featureClass=P,geonames,казанск,царевококшайск,11,
44,189,not_found,юрьева-польск,not_found,not_found,not_found,not_found,not_found,not_found,http://api.geonames.org/search?username=jaguillette&type=json&north=60.133333&west=36.416667&east=44.416667&name=%D1%8E%D1%80%D1%8C%D0%B5%D0%B2%D0%B0-%D0%BF%D0%BE%D0%BB%D1%8C%D1%81%D0%BA&south=52.133333&featureClass=P,geonames,владимерск,юрьева-польск,3,
45,189,not_found,юрьева-поль,not_found,not_found,not_found,not_found,not_found,not_found,http://api.geonames.org/search?username=jaguillette&type=json&north=60.133333&west=36.416667&east=44.416667&name=%D1%8E%D1%80%D1%8C%D0%B5%D0%B2%D0%B0-%D0%BF%D0%BE%D0%BB%D1%8C&south=52.133333&featureClass=P,geonames,владимерск,юрьева-польск,3,
46,190,Porkhov,порхов,Pskov,Russia,57.76502,29.55612,506278,RU,http://api.geonames.org/search?username=jaguillette&type=json&north=59.0651312501&west=24.1218047142&east=32.1900482178&name=%D0%BF%D0%BE%D1%80%D1%85%D0%BE%D0%B2&south=55.1937102573&featureClass=P,geonames,псковск,порхов,25,
47,191,not_found,менск,not_found,not_found,not_found,not_found,not_found,not_found,http://api.geonames.org/search?username=jaguillette&type=json&north=55.5&west=27.3&east=35.3&name=%D0%BC%D0%B5%D0%BD%D1%81%D0%BA&south=47.5&featureClass=P,geonames,черниговск,менск,38,
48,191,Men'shikovo,мен,Kursk,Russia,51.9306,34.9014,527547,RU,http://api.geonames.org/search?username=jaguillette&type=json&north=55.5&west=27.3&east=35.3&name=%D0%BC%D0%B5%D0%BD&south=47.5&featureClass=P,geonames,черниговск,менск,38,
49,191,Men’kivka,мен,Zhytomyr,Ukraine,50.64875,29.16948,701357,UA,http://api.geonames.org/search?username=jaguillette&type=json&north=55.5&west=27.3&east=35.3&name=%D0%BC%D0%B5%D0%BD&south=47.5&featureClass=P,geonames,черниговск,менск,38,
50,194,not_found,пошехонском ,not_found,not_found,not_found,not_found,not_found,not_found,http://api.geonames.org/search?username=jaguillette&type=json&north=61.616667&west=35.85&east=43.85&name=%D0%BF%D0%BE%D1%88%D0%B5%D1%85%D0%BE%D0%BD%D1%81%D0%BA%D0%BE%D0%BC+&south=53.616667&featureClass=P,geonames,ярославск,пошехонском ,39,
51,195,not_found,курмышск,not_found,not_found,not_found,not_found,not_found,not_found,http://api.geonames.org/search?username=jaguillette&type=json&north=58.316667&west=44.366667&east=52.366667&name=%D0%BA%D1%83%D1%80%D0%BC%D1%8B%D1%88%D1%81%D0%BA&south=50.316667&featureClass=P,geonames,синбирск,курмышск,30,
52,195,Kurmysh,курмыш,Nizjnij Novgorod,Russia,55.83336,46.07337,538665,RU,http://api.geonames.org/search?username=jaguillette&type=json&north=58.316667&west=44.366667&east=52.366667&name=%D0%BA%D1%83%D1%80%D0%BC%D1%8B%D1%88&south=50.316667&featureClass=P,geonames,синбирск,курмышск,30,
53,195,Kurmysh,курмыш,Tatarstan,Russia,54.43403,50.77101,538666,RU,http://api.geonames.org/search?username=jaguillette&type=json&north=58.316667&west=44.366667&east=52.366667&name=%D0%BA%D1%83%D1%80%D0%BC%D1%8B%D1%88&south=50.316667&featureClass=P,geonames,синбирск,курмышск,30,
54,195,Kurmyshi,курмыш,Chuvashia,Russia,55.98805,47.0592,538664,RU,http://api.geonames.org/search?username=jaguillette&type=json&north=58.316667&west=44.366667&east=52.366667&name=%D0%BA%D1%83%D1%80%D0%BC%D1%8B%D1%88&south=50.316667&featureClass=P,geonames,синбирск,курмышск,30,
55,195,Verkhniy Kurmysh,курмыш,Saratov,Russia,51.1,48.76667,474938,RU,http://api.geonames.org/search?username=jaguillette&type=json&north=58.316667&west=44.366667&east=52.366667&name=%D0%BA%D1%83%D1%80%D0%BC%D1%8B%D1%88&south=50.316667&featureClass=P,geonames,синбирск,курмышск,30,
56,197,not_found,роченск,not_found,not_found,not_found,not_found,not_found,not_found,http://api.geonames.org/search?username=jaguillette&type=json&north=51.5689&west=33.5563&east=38.2875&name=%D1%80%D0%BE%D1%87%D0%B5%D0%BD%D1%81%D0%BA&south=48.4869&featureClass=P,geonames,харьковск,роченск,37,
57,197,not_found,рочен,not_found,not_found,not_found,not_found,not_found,not_found,http://api.geonames.org/search?username=jaguillette&type=json&north=51.5689&west=33.5563&east=38.2875&name=%D1%80%D0%BE%D1%87%D0%B5%D0%BD&south=48.4869&featureClass=P,geonames,харьковск,роченск,37,
58,198,not_found,сумск,not_found,not_found,not_found,not_found,not_found,not_found,http://api.geonames.org/search?username=jaguillette&type=json&north=51.5689&west=33.5563&east=38.2875&name=%D1%81%D1%83%D0%BC%D1%81%D0%BA&south=48.4869&featureClass=P,geonames,харьковск,сумск,37,
59,198,Sum’skoy,сум,Belgorod,Russia,50.62429,36.37693,808092,RU,http://api.geonames.org/search?username=jaguillette&type=json&north=51.5689&west=33.5563&east=38.2875&name=%D1%81%D1%83%D0%BC&south=48.4869&featureClass=P,geonames,харьковск,сумск,37,
60,200,not_found,ваг,not_found,not_found,not_found,not_found,not_found,not_found,http://api.geonames.org/search?username=jaguillette&type=json&north=78.0&west=24.8&east=180&name=%D0%B2%D0%B0%D0%B3&south=38.6&featureClass=P,geonames,нот_ин_теxт,ваг,0,
61,202,not_found,зубцовск,not_found,not_found,not_found,not_found,not_found,not_found,http://api.geonames.org/search?username=jaguillette&type=json&north=60.857828&west=31.921928&east=39.921928&name=%D0%B7%D1%83%D0%B1%D1%86%D0%BE%D0%B2%D1%81%D0%BA&south=52.857828&featureClass=P,geonames,тверск,зубцовск,33,
62,202,Zubtsov,зубцов,Tverskaya,Russia,56.17534,34.58935,462008,RU,http://api.geonames.org/search?username=jaguillette&type=json&north=60.857828&west=31.921928&east=39.921928&name=%D0%B7%D1%83%D0%B1%D1%86%D0%BE%D0%B2&south=52.857828&featureClass=P,geonames,тверск,зубцовск,33,
63,203,not_found,рачевск,not_found,not_found,not_found,not_found,not_found,not_found,http://api.geonames.org/search?username=jaguillette&type=json&north=54.0138&west=32.7557&east=39.224&name=%D1%80%D0%B0%D1%87%D0%B5%D0%B2%D1%81%D0%BA&south=51.8511&featureClass=P,geonames,орловск,рачевск,21,
64,203,not_found,рачев,not_found,not_found,not_found,not_found,not_found,not_found,http://api.geonames.org/search?username=jaguillette&type=json&north=54.0138&west=32.7557&east=39.224&name=%D1%80%D0%B0%D1%87%D0%B5%D0%B2&south=51.8511&featureClass=P,geonames,орловск,рачевск,21,
65,205,not_found,луховск,not_found,not_found,not_found,not_found,not_found,not_found,http://api.geonames.org/search?username=jaguillette&type=json&north=61.766667&west=36.933333&east=44.933333&name=%D0%BB%D1%83%D1%85%D0%BE%D0%B2%D1%81%D0%BA&south=53.766667&featureClass=P,geonames,кострома,луховск,14,
66,205,not_found,лухов,not_found,not_found,not_found,not_found,not_found,not_found,http://api.geonames.org/search?username=jaguillette&type=json&north=61.766667&west=36.933333&east=44.933333&name=%D0%BB%D1%83%D1%85%D0%BE%D0%B2&south=53.766667&featureClass=P,geonames,кострома,луховск,14,
67,206,Karpov,карпов,Volgograd,Russia,49.68333,46.18333,552252,RU,http://api.geonames.org/search?username=jaguillette&type=json&north=78.0&west=24.8&east=180&name=%D0%BA%D0%B0%D1%80%D0%BF%D0%BE%D0%B2&south=38.6&featureClass=P,geonames,нот_ин_теxт,карпов,0,
68,206,Karpov,карпов,Brjansk,Russia,53.04028,35.0075,819995,RU,http://api.geonames.org/search?username=jaguillette&type=json&north=78.0&west=24.8&east=180&name=%D0%BA%D0%B0%D1%80%D0%BF%D0%BE%D0%B2&south=38.6&featureClass=P,geonames,нот_ин_теxт,карпов,0,
69,206,Karpov,карпов,Tambov,Russia,51.83082,41.89157,552251,RU,http://api.geonames.org/search?username=jaguillette&type=json&north=78.0&west=24.8&east=180&name=%D0%BA%D0%B0%D1%80%D0%BF%D0%BE%D0%B2&south=38.6&featureClass=P,geonames,нот_ин_теxт,карпов,0,
70,206,Karpov,карпов,Chelyabinsk,Russia,54.4,61.3,1504340,RU,http://api.geonames.org/search?username=jaguillette&type=json&north=78.0&west=24.8&east=180&name=%D0%BA%D0%B0%D1%80%D0%BF%D0%BE%D0%B2&south=38.6&featureClass=P,geonames,нот_ин_теxт,карпов,0,
71,206,Karpov,карпов,Rostov,Russia,47.60262,41.87876,552254,RU,http://api.geonames.org/search?username=jaguillette&type=json&north=78.0&west=24.8&east=180&name=%D0%BA%D0%B0%D1%80%D0%BF%D0%BE%D0%B2&south=38.6&featureClass=P,geonames,нот_ин_теxт,карпов,0,
72,206,Karpov,карпов,Astrakhan,Russia,48.11694,45.66139,552253,RU,http://api.geonames.org/search?username=jaguillette&type=json&north=78.0&west=24.8&east=180&name=%D0%BA%D0%B0%D1%80%D0%BF%D0%BE%D0%B2&south=38.6&featureClass=P,geonames,нот_ин_теxт,карпов,0,
73,206,Karpov,карпов,,Kazakhstan,50.81667,50.56667,609514,KZ,http://api.geonames.org/search?username=jaguillette&type=json&north=78.0&west=24.8&east=180&name=%D0%BA%D0%B0%D1%80%D0%BF%D0%BE%D0%B2&south=38.6&featureClass=P,geonames,нот_ин_теxт,карпов,0,
74,206,Karpov,карпов,,Kazakhstan,50.61667,50.7,609515,KZ,http://api.geonames.org/search?username=jaguillette&type=json&north=78.0&west=24.8&east=180&name=%D0%BA%D0%B0%D1%80%D0%BF%D0%BE%D0%B2&south=38.6&featureClass=P,geonames,нот_ин_теxт,карпов,0,
75,206,Karpov,карпов,,Kazakhstan,50.31667,49.18333,609516,KZ,http://api.geonames.org/search?username=jaguillette&type=json&north=78.0&west=24.8&east=180&name=%D0%BA%D0%B0%D1%80%D0%BF%D0%BE%D0%B2&south=38.6&featureClass=P,geonames,нот_ин_теxт,карпов,0,
76,206,Karpov,карпов,,Kazakhstan,50.28333,50.25,609517,KZ,http://api.geonames.org/search?username=jaguillette&type=json&north=78.0&west=24.8&east=180&name=%D0%BA%D0%B0%D1%80%D0%BF%D0%BE%D0%B2&south=38.6&featureClass=P,geonames,нот_ин_теxт,карпов,0,
77,206,Karpovo,карпов,,Kazakhstan,51.46667,50.56667,609513,KZ,http://api.geonames.org/search?username=jaguillette&type=json&north=78.0&west=24.8&east=180&name=%D0%BA%D0%B0%D1%80%D0%BF%D0%BE%D0%B2&south=38.6&featureClass=P,geonames,нот_ин_теxт,карпов,0,
78,206,Karpovka,карпов,Rostov,Russia,49.15642,40.0481,552242,RU,http://api.geonames.org/search?username=jaguillette&type=json&north=78.0&west=24.8&east=180&name=%D0%BA%D0%B0%D1%80%D0%BF%D0%BE%D0%B2&south=38.6&featureClass=P,geonames,нот_ин_теxт,карпов,0,
79,207,not_found,царевосанчурск,not_found,not_found,not_found,not_found,not_found,not_found,http://api.geonames.org/search?username=jaguillette&type=json&north=62.6&west=45.65&east=53.65&name=%D1%86%D0%B0%D1%80%D0%B5%D0%B2%D0%BE%D1%81%D0%B0%D0%BD%D1%87%D1%83%D1%80%D1%81%D0%BA&south=54.6&featureClass=P,geonames,вятск,царевосанчурск,7,
80,207,not_found,царевосанчур,not_found,not_found,not_found,not_found,not_found,not_found,http://api.geonames.org/search?username=jaguillette&type=json&north=62.6&west=45.65&east=53.65&name=%D1%86%D0%B0%D1%80%D0%B5%D0%B2%D0%BE%D1%81%D0%B0%D0%BD%D1%87%D1%83%D1%80&south=54.6&featureClass=P,geonames,вятск,царевосанчурск,7,
81,210,not_found,володимерск,not_found,not_found,not_found,not_found,not_found,not_found,http://api.geonames.org/search?username=jaguillette&type=json&north=60.133333&west=36.416667&east=44.416667&name=%D0%B2%D0%BE%D0%BB%D0%BE%D0%B4%D0%B8%D0%BC%D0%B5%D1%80%D1%81%D0%BA&south=52.133333&featureClass=P,geonames,владимерск,володимерск,3,
82,210,not_found,володимер,not_found,not_found,not_found,not_found,not_found,not_found,http://api.geonames.org/search?username=jaguillette&type=json&north=60.133333&west=36.416667&east=44.416667&name=%D0%B2%D0%BE%D0%BB%D0%BE%D0%B4%D0%B8%D0%BC%D0%B5%D1%80&south=52.133333&featureClass=P,geonames,владимерск,володимерск,3,
83,211,not_found,донков,not_found,not_found,not_found,not_found,not_found,not_found,http://api.geonames.org/search?username=jaguillette&type=json&north=55.9254&west=38.154&east=41.6952&name=%D0%B4%D0%BE%D0%BD%D0%BA%D0%BE%D0%B2&south=53.0517&featureClass=P,geonames,рязанск,донков,28,
84,212,not_found,опочек,not_found,not_found,not_found,not_found,not_found,not_found,http://api.geonames.org/search?username=jaguillette&type=json&north=78.0&west=24.8&east=180&name=%D0%BE%D0%BF%D0%BE%D1%87%D0%B5%D0%BA&south=38.6&featureClass=P,geonames,нот_ин_теxт,опочек,0,
85,213,Nerchinsk,нерчинск,Zabaykalsky,Russia,51.98333,116.58333,2019326,RU,http://api.geonames.org/search?username=jaguillette&type=json&north=90&west=91.4&east=180&name=%D0%BD%D0%B5%D1%80%D1%87%D0%B8%D0%BD%D1%81%D0%BA&south=46.5&featureClass=P,geonames,иркутск,нерчинск,9,
86,213,Nerchinskiy Zavod,нерчинск,Zabaykalsky,Russia,51.30829,119.61596,2019323,RU,http://api.geonames.org/search?username=jaguillette&type=json&north=90&west=91.4&east=180&name=%D0%BD%D0%B5%D1%80%D1%87%D0%B8%D0%BD%D1%81%D0%BA&south=46.5&featureClass=P,geonames,иркутск,нерчинск,9,
87,214,Star',стар,Brjansk,Russia,53.62362,34.15183,489271,RU,http://api.geonames.org/search?username=jaguillette&type=json&north=78.0&west=24.8&east=180&name=%D1%81%D1%82%D0%B0%D1%80&south=38.6&featureClass=P,geonames,нот_ин_теxт,стар,0,
88,214,Star’,стар,Novgorod,Russia,57.3263,32.1938,7094965,RU,http://api.geonames.org/search?username=jaguillette&type=json&north=78.0&west=24.8&east=180&name=%D1%81%D1%82%D0%B0%D1%80&south=38.6&featureClass=P,geonames,нот_ин_теxт,стар,0,
89,214,Star’,стар,Vitebsk,Belarus,54.9054,29.4266,621540,BY,http://api.geonames.org/search?username=jaguillette&type=json&north=78.0&west=24.8&east=180&name=%D1%81%D1%82%D0%B0%D1%80&south=38.6&featureClass=P,geonames,нот_ин_теxт,стар,0,
90,214,Star’,стар,Vitebsk,Belarus,54.5603,30.2323,813175,BY,http://api.geonames.org/search?username=jaguillette&type=json&north=78.0&west=24.8&east=180&name=%D1%81%D1%82%D0%B0%D1%80&south=38.6&featureClass=P,geonames,нот_ин_теxт,стар,0,
91,214,Star’,стар,Vitebsk,Belarus,54.9446,30.6249,8280278,BY,http://api.geonames.org/search?username=jaguillette&type=json&north=78.0&west=24.8&east=180&name=%D1%81%D1%82%D0%B0%D1%80&south=38.6&featureClass=P,geonames,нот_ин_теxт,стар,0,
92,214,Star Chitak,стар,Kŭrdzhali,Bulgaria,41.66667,25.21667,726843,BG,http://api.geonames.org/search?username=jaguillette&type=json&north=78.0&west=24.8&east=180&name=%D1%81%D1%82%D0%B0%D1%80&south=38.6&featureClass=P,geonames,нот_ин_теxт,стар,0,
93,214,Starogryaznoye,стар,Tambov,Russia,53.25113,41.49454,488828,RU,http://api.geonames.org/search?username=jaguillette&type=json&north=78.0&west=24.8&east=180&name=%D1%81%D1%82%D0%B0%D1%80&south=38.6&featureClass=P,geonames,нот_ин_теxт,стар,0,
94,214,Staraya Chemrovka,стар,Altai Krai,Russia,52.66018,85.18175,1491043,RU,http://api.geonames.org/search?username=jaguillette&type=json&north=78.0&west=24.8&east=180&name=%D1%81%D1%82%D0%B0%D1%80&south=38.6&featureClass=P,geonames,нот_ин_теxт,стар,0,
95,214,Starozaimka,стар,Tjumen,Russia,56.51926,66.84142,1490937,RU,http://api.geonames.org/search?username=jaguillette&type=json&north=78.0&west=24.8&east=180&name=%D1%81%D1%82%D0%B0%D1%80&south=38.6&featureClass=P,geonames,нот_ин_теxт,стар,0,
96,214,Staryy Saltiv,стар,Kharkiv,Ukraine,50.07619,36.78852,692703,UA,http://api.geonames.org/search?username=jaguillette&type=json&north=78.0&west=24.8&east=180&name=%D1%81%D1%82%D0%B0%D1%80&south=38.6&featureClass=P,geonames,нот_ин_теxт,стар,0,
97,214,Staryy Pochinok,стар,Vologda,Russia,60.31166,46.18286,487924,RU,http://api.geonames.org/search?username=jaguillette&type=json&north=78.0&west=24.8&east=180&name=%D1%81%D1%82%D0%B0%D1%80&south=38.6&featureClass=P,geonames,нот_ин_теxт,стар,0,
98,214,Staryy Kistruss,стар,Rjazan,Russia,54.4819,40.5742,487962,RU,http://api.geonames.org/search?username=jaguillette&type=json&north=78.0&west=24.8&east=180&name=%D1%81%D1%82%D0%B0%D1%80&south=38.6&featureClass=P,geonames,нот_ин_теxт,стар,0,
99,214,Staryye Kamyshly,стар,Bashkortostan,Russia,54.94806,55.76083,488087,RU,http://api.geonames.org/search?username=jaguillette&type=json&north=78.0&west=24.8&east=180&name=%D1%81%D1%82%D0%B0%D1%80&south=38.6&featureClass=P,geonames,нот_ин_теxт,стар,0,
100,214,Staroye Rogovoye,стар,Kursk,Russia,51.4476,37.9557,488335,RU,http://api.geonames.org/search?username=jaguillette&type=json&north=78.0&west=24.8&east=180&name=%D1%81%D1%82%D0%B0%D1%80&south=38.6&featureClass=P,geonames,нот_ин_теxт,стар,0,
101,214,Staroye Rakomo,стар,Novgorod,Russia,58.4479,31.2308,488340,RU,http://api.geonames.org/search?username=jaguillette&type=json&north=78.0&west=24.8&east=180&name=%D1%81%D1%82%D0%B0%D1%80&south=38.6&featureClass=P,geonames,нот_ин_теxт,стар,0,
102,214,Staroye Gvozdino,стар,Tverskaya,Russia,57.93629,37.05096,488445,RU,http://api.geonames.org/search?username=jaguillette&type=json&north=78.0&west=24.8&east=180&name=%D1%81%D1%82%D0%B0%D1%80&south=38.6&featureClass=P,geonames,нот_ин_теxт,стар,0,
103,214,Staroye Almatovo,стар,Nizjnij Novgorod,Russia,55.12886,45.26119,488520,RU,http://api.geonames.org/search?username=jaguillette&type=json&north=78.0&west=24.8&east=180&name=%D1%81%D1%82%D0%B0%D1%80&south=38.6&featureClass=P,geonames,нот_ин_теxт,стар,0,
104,214,Staraya Racheyka,стар,Samara,Russia,53.3781,48.0221,489096,RU,http://api.geonames.org/search?username=jaguillette&type=json&north=78.0&west=24.8&east=180&name=%D1%81%D1%82%D0%B0%D1%80&south=38.6&featureClass=P,geonames,нот_ин_теxт,стар,0,
105,214,Staraya Ivantsovka,стар,Volgograd,Russia,50.03876,46.71151,489205,RU,http://api.geonames.org/search?username=jaguillette&type=json&north=78.0&west=24.8&east=180&name=%D1%81%D1%82%D0%B0%D1%80&south=38.6&featureClass=P,geonames,нот_ин_теxт,стар,0,
106,214,Staraya Chigla,стар,Voronezj,Russia,51.2866,40.3842,489232,RU,http://api.geonames.org/search?username=jaguillette&type=json&north=78.0&west=24.8&east=180&name=%D1%81%D1%82%D0%B0%D1%80&south=38.6&featureClass=P,geonames,нот_ин_теxт,стар,0,
107,214,Staroye Selo,стар,Pskov,Russia,57.9051,30.12039,542001,RU,http://api.geonames.org/search?username=jaguillette&type=json&north=78.0&west=24.8&east=180&name=%D1%81%D1%82%D0%B0%D1%80&south=38.6&featureClass=P,geonames,нот_ин_теxт,стар,0,
108,214,Staraya Sama,стар,Sverdlovsk,Russia,60.20333,60.37472,1493156,RU,http://api.geonames.org/search?username=jaguillette&type=json&north=78.0&west=24.8&east=180&name=%D1%81%D1%82%D0%B0%D1%80&south=38.6&featureClass=P,geonames,нот_ин_теxт,стар,0,
109,214,Staroye Shadrino,стар,Tjumen,Russia,56.1624,65.8713,1490939,RU,http://api.geonames.org/search?username=jaguillette&type=json&north=78.0&west=24.8&east=180&name=%D1%81%D1%82%D0%B0%D1%80&south=38.6&featureClass=P,geonames,нот_ин_теxт,стар,0,
110,214,Staryy Ukyrchelon,стар,Respublika Buryatiya,Russia,50.5451,104.9156,2014499,RU,http://api.geonames.org/search?username=jaguillette&type=json&north=78.0&west=24.8&east=180&name=%D1%81%D1%82%D0%B0%D1%80&south=38.6&featureClass=P,geonames,нот_ин_теxт,стар,0,
111,214,Staryy Durulguy,стар,Zabaykalsky,Russia,50.46667,114.3,2016051,RU,http://api.geonames.org/search?username=jaguillette&type=json&north=78.0&west=24.8&east=180&name=%D1%81%D1%82%D0%B0%D1%80&south=38.6&featureClass=P,geonames,нот_ин_теxт,стар,0,
112,214,Staraya Kurba,стар,Respublika Buryatiya,Russia,52.00616,108.51801,2016085,RU,http://api.geonames.org/search?username=jaguillette&type=json&north=78.0&west=24.8&east=180&name=%D1%81%D1%82%D0%B0%D1%80&south=38.6&featureClass=P,geonames,нот_ин_теxт,стар,0,
113,214,Staroturbasly,стар,Bashkortostan,Russia,54.94453,56.11892,488599,RU,http://api.geonames.org/search?username=jaguillette&type=json&north=78.0&west=24.8&east=180&name=%D1%81%D1%82%D0%B0%D1%80&south=38.6&featureClass=P,geonames,нот_ин_теxт,стар,0,
114,214,Staryy Merchyk,стар,Kharkiv,Ukraine,49.98147,35.75904,692709,UA,http://api.geonames.org/search?username=jaguillette&type=json&north=78.0&west=24.8&east=180&name=%D1%81%D1%82%D0%B0%D1%80&south=38.6&featureClass=P,geonames,нот_ин_теxт,стар,0,
115,214,Staryy Vershaut,стар,Penza,Russia,52.53139,45.775,487866,RU,http://api.geonames.org/search?username=jaguillette&type=json&north=78.0&west=24.8&east=180&name=%D1%81%D1%82%D0%B0%D1%80&south=38.6&featureClass=P,geonames,нот_ин_теxт,стар,0,
116,214,Staryy Utchan,стар,Udmurtiya,Russia,56.16434,52.33944,487870,RU,http://api.geonames.org/search?username=jaguillette&type=json&north=78.0&west=24.8&east=180&name=%D1%81%D1%82%D0%B0%D1%80&south=38.6&featureClass=P,geonames,нот_ин_теxт,стар,0,
117,214,Staryy Tryk,стар,Udmurtiya,Russia,56.35748,51.54563,487878,RU,http://api.geonames.org/search?username=jaguillette&type=json&north=78.0&west=24.8&east=180&name=%D1%81%D1%82%D0%B0%D1%80&south=38.6&featureClass=P,geonames,нот_ин_теxт,стар,0,
118,214,Staryy Tor”yal,стар,Mariy-El,Russia,56.96194,48.78917,487880,RU,http://api.geonames.org/search?username=jaguillette&type=json&north=78.0&west=24.8&east=180&name=%D1%81%D1%82%D0%B0%D1%80&south=38.6&featureClass=P,geonames,нот_ин_теxт,стар,0,
119,214,Staryy Studenets,стар,Tatarstan,Russia,54.88232,48.26127,487889,RU,http://api.geonames.org/search?username=jaguillette&type=json&north=78.0&west=24.8&east=180&name=%D1%81%D1%82%D0%B0%D1%80&south=38.6&featureClass=P,geonames,нот_ин_теxт,стар,0,
120,214,Staryy Shagirt,стар,Perm,Russia,56.45223,55.20033,487901,RU,http://api.geonames.org/search?username=jaguillette&type=json&north=78.0&west=24.8&east=180&name=%D1%81%D1%82%D0%B0%D1%80&south=38.6&featureClass=P,geonames,нот_ин_теxт,стар,0,
121,214,Staryy Pogost,стар,Tverskaya,Russia,56.7117,36.07279,487921,RU,http://api.geonames.org/search?username=jaguillette&type=json&north=78.0&west=24.8&east=180&name=%D1%81%D1%82%D0%B0%D1%80&south=38.6&featureClass=P,geonames,нот_ин_теxт,стар,0,
122,214,Staryy Picheur,стар,Ulyanovsk,Russia,52.87202,47.06011,487925,RU,http://api.geonames.org/search?username=jaguillette&type=json&north=78.0&west=24.8&east=180&name=%D1%81%D1%82%D0%B0%D1%80&south=38.6&featureClass=P,geonames,нот_ин_теxт,стар,0,
123,214,Staryy Perevoz,стар,Sverdlovsk,Russia,59.388,59.9543,487927,RU,http://api.geonames.org/search?username=jaguillette&type=json&north=78.0&west=24.8&east=180&name=%D1%81%D1%82%D0%B0%D1%80&south=38.6&featureClass=P,geonames,нот_ин_теxт,стар,0,
124,214,Staryy Mutebash,стар,Bashkortostan,Russia,56.22243,56.2821,487932,RU,http://api.geonames.org/search?username=jaguillette&type=json&north=78.0&west=24.8&east=180&name=%D1%81%D1%82%D0%B0%D1%80&south=38.6&featureClass=P,geonames,нот_ин_теxт,стар,0,
125,214,Staryy Mostyak,стар,Ulyanovsk,Russia,52.69856,47.41323,487933,RU,http://api.geonames.org/search?username=jaguillette&type=json&north=78.0&west=24.8&east=180&name=%D1%81%D1%82%D0%B0%D1%80&south=38.6&featureClass=P,geonames,нот_ин_теxт,стар,0,
126,214,Staryy Lyp,стар,Perm,Russia,57.37816,54.26733,487941,RU,http://api.geonames.org/search?username=jaguillette&type=json&north=78.0&west=24.8&east=180&name=%D1%81%D1%82%D0%B0%D1%80&south=38.6&featureClass=P,geonames,нот_ин_теxт,стар,0,
127,214,Staryy Kych,стар,Udmurtiya,Russia,57.5339,53.7207,487945,RU,http://api.geonames.org/search?username=jaguillette&type=json&north=78.0&west=24.8&east=180&name=%D1%81%D1%82%D0%B0%D1%80&south=38.6&featureClass=P,geonames,нот_ин_теxт,стар,0,
128,214,Staryy Kurlak,стар,Voronezj,Russia,51.41444,40.53472,487950,RU,http://api.geonames.org/search?username=jaguillette&type=json&north=78.0&west=24.8&east=180&name=%D1%81%D1%82%D0%B0%D1%80&south=38.6&featureClass=P,geonames,нот_ин_теxт,стар,0,
129,214,Staryy Kurdym,стар,Bashkortostan,Russia,56.254,55.4899,487951,RU,http://api.geonames.org/search?username=jaguillette&type=json&north=78.0&west=24.8&east=180&name=%D1%81%D1%82%D0%B0%D1%80&south=38.6&featureClass=P,geonames,нот_ин_теxт,стар,0,
130,214,Staryy Kryazhim,стар,Penza,Russia,53.07421,46.19278,487956,RU,http://api.geonames.org/search?username=jaguillette&type=json&north=78.0&west=24.8&east=180&name=%D1%81%D1%82%D0%B0%D1%80&south=38.6&featureClass=P,geonames,нот_ин_теxт,стар,0,
131,214,Staryy Karlygan,стар,Penza,Russia,52.4696,45.8189,487974,RU,http://api.geonames.org/search?username=jaguillette&type=json&north=78.0&west=24.8&east=180&name=%D1%81%D1%82%D0%B0%D1%80&south=38.6&featureClass=P,geonames,нот_ин_теxт,стар,0,
132,214,Staryye Urmary,стар,Chuvashia,Russia,55.68421,47.99203,488011,RU,http://api.geonames.org/search?username=jaguillette&type=json&north=78.0&west=24.8&east=180&name=%D1%81%D1%82%D0%B0%D1%80&south=38.6&featureClass=P,geonames,нот_ин_теxт,стар,0,
133,214,Staryye Turdaki,стар,Mordoviya,Russia,53.91563,45.48107,488018,RU,http://api.geonames.org/search?username=jaguillette&type=json&north=78.0&west=24.8&east=180&name=%D1%81%D1%82%D0%B0%D1%80&south=38.6&featureClass=P,geonames,нот_ин_теxт,стар,0,
134,214,Staryye Turdaki,стар,Penza,Russia,53.02941,45.69737,488019,RU,http://api.geonames.org/search?username=jaguillette&type=json&north=78.0&west=24.8&east=180&name=%D1%81%D1%82%D0%B0%D1%80&south=38.6&featureClass=P,geonames,нот_ин_теxт,стар,0,
135,214,Staryye Maklaushi,стар,Ulyanovsk,Russia,54.4556,47.4595,488062,RU,http://api.geonames.org/search?username=jaguillette&type=json&north=78.0&west=24.8&east=180&name=%D1%81%D1%82%D0%B0%D1%80&south=38.6&featureClass=P,geonames,нот_ин_теxт,стар,0,
136,214,Staryye Kazanchi,стар,Bashkortostan,Russia,56.20565,56.22428,488080,RU,http://api.geonames.org/search?username=jaguillette&type=json&north=78.0&west=24.8&east=180&name=%D1%81%D1%82%D0%B0%D1%80&south=38.6&featureClass=P,geonames,нот_ин_теxт,стар,0,
137,214,Staryye Kakerli,стар,Tatarstan,Russia,54.83392,47.52202,488090,RU,http://api.geonames.org/search?username=jaguillette&type=json&north=78.0&west=24.8&east=180&name=%D1%81%D1%82%D0%B0%D1%80&south=38.6&featureClass=P,geonames,нот_ин_теxт,стар,0,
138,214,Staryye Chukaly,стар,Chuvashia,Russia,54.7128,47.20327,488105,RU,http://api.geonames.org/search?username=jaguillette&type=json&north=78.0&west=24.8&east=180&name=%D1%81%D1%82%D0%B0%D1%80&south=38.6&featureClass=P,geonames,нот_ин_теxт,стар,0,
139,214,Staryye Chukaly,стар,Tatarstan,Russia,54.6488,47.5409,488106,RU,http://api.geonames.org/search?username=jaguillette&type=json&north=78.0&west=24.8&east=180&name=%D1%81%D1%82%D0%B0%D1%80&south=38.6&featureClass=P,geonames,нот_ин_теxт,стар,0,
140,214,Staryye Arti,стар,Sverdlovsk,Russia,56.31935,58.59196,488129,RU,http://api.geonames.org/search?username=jaguillette&type=json&north=78.0&west=24.8&east=180&name=%D1%81%D1%82%D0%B0%D1%80&south=38.6&featureClass=P,geonames,нот_ин_теxт,стар,0,
141,214,Staryye Algashi,стар,Ulyanovsk,Russia,54.6577,47.7367,488130,RU,http://api.geonames.org/search?username=jaguillette&type=json&north=78.0&west=24.8&east=180&name=%D1%81%D1%82%D0%B0%D1%80&south=38.6&featureClass=P,geonames,нот_ин_теxт,стар,0,
142,214,Staryy Chukhlem,стар,Komi Republic,Russia,61.23758,50.17686,488140,RU,http://api.geonames.org/search?username=jaguillette&type=json&north=78.0&west=24.8&east=180&name=%D1%81%D1%82%D0%B0%D1%80&south=38.6&featureClass=P,geonames,нот_ин_теxт,стар,0,
143,214,Staryy Chirchim,стар,Penza,Russia,52.76747,46.36169,488141,RU,http://api.geonames.org/search?username=jaguillette&type=json&north=78.0&west=24.8&east=180&name=%D1%81%D1%82%D0%B0%D1%80&south=38.6&featureClass=P,geonames,нот_ин_теxт,стар,0,
144,214,Staryy Chad,стар,Perm,Russia,56.9269,55.4279,488143,RU,http://api.geonames.org/search?username=jaguillette&type=json&north=78.0&west=24.8&east=180&name=%D1%81%D1%82%D0%B0%D1%80&south=38.6&featureClass=P,geonames,нот_ин_теxт,стар,0,
145,214,Staryy Bereznyak,стар,Udmurtiya,Russia,56.33239,52.44066,488159,RU,http://api.geonames.org/search?username=jaguillette&type=json&north=78.0&west=24.8&east=180&name=%D1%81%D1%82%D0%B0%D1%80&south=38.6&featureClass=P,geonames,нот_ин_теxт,стар,0,
146,214,Staryy Atlash,стар,Ulyanovsk,Russia,52.78719,47.30758,488165,RU,http://api.geonames.org/search?username=jaguillette&type=json&north=78.0&west=24.8&east=180&name=%D1%81%D1%82%D0%B0%D1%80&south=38.6&featureClass=P,geonames,нот_ин_теxт,стар,0,
147,214,Staryy Ashit,стар,Tatarstan,Russia,56.34685,49.66425,488166,RU,http://api.geonames.org/search?username=jaguillette&type=json&north=78.0&west=24.8&east=180&name=%D1%81%D1%82%D0%B0%D1%80&south=38.6&featureClass=P,geonames,нот_ин_теxт,стар,0,
148,214,Staroye Zakharkino,стар,Penza,Russia,52.90111,45.238,488223,RU,http://api.geonames.org/search?username=jaguillette&type=json&north=78.0&west=24.8&east=180&name=%D1%81%D1%82%D0%B0%D1%80&south=38.6&featureClass=P,geonames,нот_ин_теxт,стар,0,
149,214,Staroye Selo,стар,Tverskaya,Russia,57.27105,32.79501,488312,RU,http://api.geonames.org/search?username=jaguillette&type=json&north=78.0&west=24.8&east=180&name=%D1%81%D1%82%D0%B0%D1%80&south=38.6&featureClass=P,geonames,нот_ин_теxт,стар,0,
150,214,Staroye Pogorelovo,стар,Ulyanovsk,Russia,54.12281,46.85839,488349,RU,http://api.geonames.org/search?username=jaguillette&type=json&north=78.0&west=24.8&east=180&name=%D1%81%D1%82%D0%B0%D1%80&south=38.6&featureClass=P,geonames,нот_ин_теxт,стар,0,
151,214,Staroye Opokino,стар,Vladimir,Russia,55.73242,40.90838,488369,RU,http://api.geonames.org/search?username=jaguillette&type=json&north=78.0&west=24.8&east=180&name=%D1%81%D1%82%D0%B0%D1%80&south=38.6&featureClass=P,geonames,нот_ин_теxт,стар,0,
152,214,Staroye Kvasovo,стар,Vologda,Russia,58.7711,36.1793,488396,RU,http://api.geonames.org/search?username=jaguillette&type=json&north=78.0&west=24.8&east=180&name=%D1%81%D1%82%D0%B0%D1%80&south=38.6&featureClass=P,geonames,нот_ин_теxт,стар,0,
153,214,Staroye Gorkolovo,стар,Leningrad,Russia,59.79733,28.668,488452,RU,http://api.geonames.org/search?username=jaguillette&type=json&north=78.0&west=24.8&east=180&name=%D1%81%D1%82%D0%B0%D1%80&south=38.6&featureClass=P,geonames,нот_ин_теxт,стар,0,
154,214,Staroye Drakino,стар,Mordoviya,Russia,53.895,43.95111,488467,RU,http://api.geonames.org/search?username=jaguillette&type=json&north=78.0&west=24.8&east=180&name=%D1%81%D1%82%D0%B0%D1%80&south=38.6&featureClass=P,geonames,нот_ин_теxт,стар,0,
155,214,Staroye Churilino,стар,Tatarstan,Russia,56.02702,49.72911,488472,RU,http://api.geonames.org/search?username=jaguillette&type=json&north=78.0&west=24.8&east=180&name=%D1%81%D1%82%D0%B0%D1%80&south=38.6&featureClass=P,geonames,нот_ин_теxт,стар,0,
156,214,Staroye Chirkovo,стар,Ulyanovsk,Russia,52.89686,46.96996,488474,RU,http://api.geonames.org/search?username=jaguillette&type=json&north=78.0&west=24.8&east=180&name=%D1%81%D1%82%D0%B0%D1%80&south=38.6&featureClass=P,geonames,нот_ин_теxт,стар,0,
157,214,Staroye Badikovo,стар,Mordoviya,Russia,53.84005,42.69783,488504,RU,http://api.geonames.org/search?username=jaguillette&type=json&north=78.0&west=24.8&east=180&name=%D1%81%D1%82%D0%B0%D1%80&south=38.6&featureClass=P,geonames,нот_ин_теxт,стар,0,
158,214,Starovaryash,стар,Bashkortostan,Russia,56.0856,55.2872,488592,RU,http://api.geonames.org/search?username=jaguillette&type=json&north=78.0&west=24.8&east=180&name=%D1%81%D1%82%D0%B0%D1%80&south=38.6&featureClass=P,geonames,нот_ин_теxт,стар,0,
159,214,Starouralka,стар,Bashkortostan,Russia,52.73333,55.83333,488597,RU,http://api.geonames.org/search?username=jaguillette&type=json&north=78.0&west=24.8&east=180&name=%D1%81%D1%82%D0%B0%D1%80&south=38.6&featureClass=P,geonames,нот_ин_теxт,стар,0,
160,214,Starotarbeyevo,стар,Tambov,Russia,52.8541,40.3268,488614,RU,http://api.geonames.org/search?username=jaguillette&type=json&north=78.0&west=24.8&east=180&name=%D1%81%D1%82%D0%B0%D1%80&south=38.6&featureClass=P,geonames,нот_ин_теxт,стар,0,
161,214,Staroshaygovo,стар,Mordoviya,Russia,54.30763,44.47282,488638,RU,http://api.geonames.org/search?username=jaguillette&type=json&north=78.0&west=24.8&east=180&name=%D1%81%D1%82%D0%B0%D1%80&south=38.6&featureClass=P,geonames,нот_ин_теxт,стар,0,
162,214,Staraya Mushta,стар,Bashkortostan,Russia,55.80256,54.24031,488736,RU,http://api.geonames.org/search?username=jaguillette&type=json&north=78.0&west=24.8&east=180&name=%D1%81%D1%82%D0%B0%D1%80&south=38.6&featureClass=P,geonames,нот_ин_теxт,стар,0,
163,214,Staro-Khmelevoye,стар,Tambov,Russia,52.7964,40.5276,488798,RU,http://api.geonames.org/search?username=jaguillette&type=json&north=78.0&west=24.8&east=180&name=%D1%81%D1%82%D0%B0%D1%80&south=38.6&featureClass=P,geonames,нот_ин_теxт,стар,0,
164,214,Staryye Kargaly,стар,Bashkortostan,Russia,55.96507,55.65133,488804,RU,http://api.geonames.org/search?username=jaguillette&type=json&north=78.0&west=24.8&east=180&name=%D1%81%D1%82%D0%B0%D1%80&south=38.6&featureClass=P,geonames,нот_ин_теxт,стар,0,
165,214,Starokalkash,стар,Bashkortostan,Russia,53.48395,55.39366,488813,RU,http://api.geonames.org/search?username=jaguillette&type=json&north=78.0&west=24.8&east=180&name=%D1%81%D1%82%D0%B0%D1%80&south=38.6&featureClass=P,geonames,нот_ин_теxт,стар,0,
166,214,Staryye Bagazy,стар,Bashkortostan,Russia,55.88415,56.88593,488885,RU,http://api.geonames.org/search?username=jaguillette&type=json&north=78.0&west=24.8&east=180&name=%D1%81%D1%82%D0%B0%D1%80&south=38.6&featureClass=P,geonames,нот_ин_теxт,стар,0,
167,214,Staraya Zhukovka,стар,Saratov,Russia,52.20002,46.5185,488999,RU,http://api.geonames.org/search?username=jaguillette&type=json&north=78.0&west=24.8&east=180&name=%D1%81%D1%82%D0%B0%D1%80&south=38.6&featureClass=P,geonames,нот_ин_теxт,стар,0,
168,214,Staraya Tushka,стар,Kirov,Russia,56.74419,50.50565,489033,RU,http://api.geonames.org/search?username=jaguillette&type=json&north=78.0&west=24.8&east=180&name=%D1%81%D1%82%D0%B0%D1%80&south=38.6&featureClass=P,geonames,нот_ин_теxт,стар,0,
169,214,Staraya Topovka,стар,Saratov,Russia,50.97356,45.31427,489044,RU,http://api.geonames.org/search?username=jaguillette&type=json&north=78.0&west=24.8&east=180&name=%D1%81%D1%82%D0%B0%D1%80&south=38.6&featureClass=P,geonames,нот_ин_теxт,стар,0,
170,214,Staraya Tolkovka,стар,Penza,Russia,53.43887,43.46955,489046,RU,http://api.geonames.org/search?username=jaguillette&type=json&north=78.0&west=24.8&east=180&name=%D1%81%D1%82%D0%B0%D1%80&south=38.6&featureClass=P,geonames,нот_ин_теxт,стар,0,
171,214,Staraya Ruza,стар,Moskovskaya,Russia,55.64929,36.33105,489087,RU,http://api.geonames.org/search?username=jaguillette&type=json&north=78.0&west=24.8&east=180&name=%D1%81%D1%82%D0%B0%D1%80&south=38.6&featureClass=P,geonames,нот_ин_теxт,стар,0,
172,214,Staraya Rudka,стар,Nizjnij Novgorod,Russia,56.96119,46.48801,489090,RU,http://api.geonames.org/search?username=jaguillette&type=json&north=78.0&west=24.8&east=180&name=%D1%81%D1%82%D0%B0%D1%80&south=38.6&featureClass=P,geonames,нот_ин_теxт,стар,0,
173,214,Staraya Porubezhka,стар,Saratov,Russia,52.0589,49.1863,489101,RU,http://api.geonames.org/search?username=jaguillette&type=json&north=78.0&west=24.8&east=180&name=%D1%81%D1%82%D0%B0%D1%80&south=38.6&featureClass=P,geonames,нот_ин_теxт,стар,0,
174,214,Staraya Omga,стар,Udmurtiya,Russia,56.57493,51.24843,489121,RU,http://api.geonames.org/search?username=jaguillette&type=json&north=78.0&west=24.8&east=180&name=%D1%81%D1%82%D0%B0%D1%80&south=38.6&featureClass=P,geonames,нот_ин_теxт,стар,0,
175,214,Staraya Kriusha,стар,Voronezj,Russia,50.1997,41.1507,489165,RU,http://api.geonames.org/search?username=jaguillette&type=json&north=78.0&west=24.8&east=180&name=%D1%81%D1%82%D0%B0%D1%80&south=38.6&featureClass=P,geonames,нот_ин_теxт,стар,0,
176,214,Staraya Kazanka,стар,Udmurtiya,Russia,56.61162,51.40688,489191,RU,http://api.geonames.org/search?username=jaguillette&type=json&north=78.0&west=24.8&east=180&name=%D1%81%D1%82%D0%B0%D1%80&south=38.6&featureClass=P,geonames,нот_ин_теxт,стар,0,
177,214,Staraya Ivanovka,стар,Saratov,Russia,51.5969,44.57164,489208,RU,http://api.geonames.org/search?username=jaguillette&type=json&north=78.0&west=24.8&east=180&name=%D1%81%D1%82%D0%B0%D1%80&south=38.6&featureClass=P,geonames,нот_ин_теxт,стар,0,
178,214,Staraya Fëdorovka,стар,Mordoviya,Russia,54.48997,44.7567,489220,RU,http://api.geonames.org/search?username=jaguillette&type=json&north=78.0&west=24.8&east=180&name=%D1%81%D1%82%D0%B0%D1%80&south=38.6&featureClass=P,geonames,нот_ин_теxт,стар,0,
179,214,Staraya Chuncha,стар,Udmurtiya,Russia,56.98613,51.97565,489229,RU,http://api.geonames.org/search?username=jaguillette&type=json&north=78.0&west=24.8&east=180&name=%D1%81%D1%82%D0%B0%D1%80&south=38.6&featureClass=P,geonames,нот_ин_теxт,стар,0,
180,214,Staroye Tonino,стар,Rjazan,Russia,54.5477,40.5398,482234,RU,http://api.geonames.org/search?username=jaguillette&type=json&north=78.0&west=24.8&east=180&name=%D1%81%D1%82%D0%B0%D1%80&south=38.6&featureClass=P,geonames,нот_ин_теxт,стар,0,
181,214,Staryy Tyazhin,стар,Kemerovo,Russia,56.13746,88.57028,1490911,RU,http://api.geonames.org/search?username=jaguillette&type=json&north=78.0&west=24.8&east=180&name=%D1%81%D1%82%D0%B0%D1%80&south=38.6&featureClass=P,geonames,нот_ин_теxт,стар,0,
182,214,Staryy Kavdyk,стар,Tjumen,Russia,56.76968,66.22834,1490923,RU,http://api.geonames.org/search?username=jaguillette&type=json&north=78.0&west=24.8&east=180&name=%D1%81%D1%82%D0%B0%D1%80&south=38.6&featureClass=P,geonames,нот_ин_теxт,стар,0,
183,214,Staryy Katysh,стар,Khanty-Mansiyskiy Avtonomnyy Okrug,Russia,59.45,66.8,1490924,RU,http://api.geonames.org/search?username=jaguillette&type=json&north=78.0&west=24.8&east=180&name=%D1%81%D1%82%D0%B0%D1%80&south=38.6&featureClass=P,geonames,нот_ин_теxт,стар,0,
184,214,Staryy Karapuz,стар,Novosibirsk,Russia,55.06943,78.90713,1490988,RU,http://api.geonames.org/search?username=jaguillette&type=json&north=78.0&west=24.8&east=180&name=%D1%81%D1%82%D0%B0%D1%80&south=38.6&featureClass=P,geonames,нот_ин_теxт,стар,0,
185,214,Staraya Azhinka,стар,Altai Krai,Russia,52.6388,86.3905,1491049,RU,http://api.geonames.org/search?username=jaguillette&type=json&north=78.0&west=24.8&east=180&name=%D1%81%D1%82%D0%B0%D1%80&south=38.6&featureClass=P,geonames,нот_ин_теxт,стар,0,
186,214,Staryy Khogot,стар,Irkutsk,Russia,53.29167,105.78722,2016047,RU,http://api.geonames.org/search?username=jaguillette&type=json&north=78.0&west=24.8&east=180&name=%D1%81%D1%82%D0%B0%D1%80&south=38.6&featureClass=P,geonames,нот_ин_теxт,стар,0,
187,217,not_found,повенецк,not_found,not_found,not_found,not_found,not_found,not_found,http://api.geonames.org/search?username=jaguillette&type=json&north=65.783333&west=30.35&east=38.35&name=%D0%BF%D0%BE%D0%B2%D0%B5%D0%BD%D0%B5%D1%86%D0%BA&south=57.783333&featureClass=P,geonames,олонецк,повенецк,20,
188,218,not_found,инсарск,not_found,not_found,not_found,not_found,not_found,not_found,http://api.geonames.org/search?username=jaguillette&type=json&north=54.837&west=41.8373&east=46.7277&name=%D0%B8%D0%BD%D1%81%D0%B0%D1%80%D1%81%D0%BA&south=52.3247&featureClass=P,geonames,пензенск,инсарск,22,
189,218,Insar,инсар,Mordoviya,Russia,54.06504,44.29102,556317,RU,http://api.geonames.org/search?username=jaguillette&type=json&north=54.837&west=41.8373&east=46.7277&name=%D0%B8%D0%BD%D1%81%D0%B0%D1%80&south=52.3247&featureClass=P,geonames,пензенск,инсарск,22,
190,218,Insar,инсар,Mordoviya,Russia,53.86531,44.37382,556318,RU,http://api.geonames.org/search?username=jaguillette&type=json&north=54.837&west=41.8373&east=46.7277&name=%D0%B8%D0%BD%D1%81%D0%B0%D1%80&south=52.3247&featureClass=P,geonames,пензенск,инсарск,22,
191,218,Insar-Akshino,инсар,Mordoviya,Russia,54.00988,44.78286,556315,RU,http://api.geonames.org/search?username=jaguillette&type=json&north=54.837&west=41.8373&east=46.7277&name=%D0%B8%D0%BD%D1%81%D0%B0%D1%80&south=52.3247&featureClass=P,geonames,пензенск,инсарск,22,
