admin_seat_name,uniq_id,ru_old_orth,ru_new_orth,lc_translit_old,lc_translit_new,alt_name_old_orth,alt_name_new_orth,alt_name_old_trans,alt_name_new_trans,beg_yr,end_yr,xy_type,x_coord,y_coord,pres_loc,pres_country,country_code,ru_old_featuretype,ru_new_featuretype,ru_translit_old_featuretype,ru_translit_new_featuretype,en_featuretype,id_featuretype,lc_featuretype,admin_level,SOURCE,description,geonameId,partof_id,txt_id
Архангелскъ,2,Архангельское Намѣстничество,Архангельское Наместничество,Arkhangel'skoe Namiestnichestvo,Arkhangel'skoe Namestnichestvo,,,,,1785,1796,POINT,40.533333,64.533333,"Arkhangelsk, Arkhangelsk Oblast",Russia,RU,Намѣстничество,Наместничество,Namiestnichestvo,Namestnichestvo,Viceroyalty,,,adminL1,,,,756,
Архангелскъ,43,Архангельский уѣздѣ,Архангельский уезд,Arkhangel'skii uiezdie,Arkhangel'skii uezd,,,,,1785,1796,POINT,40.533333,64.533333,"Arkhangelsk, Arkhangelsk Oblast",Russia,RU,уѣздѣ,уезд,uiezdie,uezd,county,,,adminL2,,,,2,
Холмогоры,,Холмогорский уѣздѣ,Холмогорский уезд,Kholmogorskii uiezdie,Kholmogorskii uezd,,,,,,,,41.656,64.2229,,,,,,,,,,,,,,,2,
Шенкурскъ,,Шенкурский уѣздѣ,Шенкурский уезд,,,,,,,,,,,,,,,,,,,,,,,,,,2,
Пинега,,Пинежский,,,,,,,,,,,,,,,,,,,,,,,,,,,2,
Онега,,Онежский,,,,,,,,,,,,,,,,,,,,,,,,,,,2,
Кола,,Кольский,,,,,,,,,,,,,,,,,,,,,,,,,,,2,
Мезень,124,Мезенский уѣздѣ,Мезенский уезд,Mezenskii uiezdie,Mezenskii uezd,,,,,1785,1796,POINT,44.2542,65.8401,"Mezen, Arkhangelsk Oblast",Russia,RU,уѣздѣ,уезд,uiezdie,uezd,county,,,adminL2,,,,2,
Владиміръ,3,Владимерское Намѣстничество,Владимерское Наместничество,Vladimerskoe Namiestnichestvo,Vladimerskoe Namestnichestvo,,,,,1785,1796,POINT,40.416667,56.133333,"Vladimir, Vladimir Oblast",Russia,RU,Намѣстничество,Наместничество,Namiestnichestvo,Namestnichestvo,Viceroyalty,,,adminL1,,,,756,
Владиміръ,44,Владимерский уѣздѣ,Владимерский уезд,Vladimerskii uiezdie,Vladimerskii uezd,,,,,1785,1796,POINT,40.416667,56.133333,"Vladimir, Vladimir Oblast",Russia,RU,уѣздѣ,уезд,uiezdie,uezd,county,,,adminL2,,,,3,
Суздаль,150,Суздальский уѣздѣ,Суздальский уезд,Suzdal'skii uiezdie,Suzdal'skii uezd,,,,,1785,1796,POINT,40.44668,56.42274,"Suzdal, Vladimir Oblast",Russia,RU,уѣздѣ,уезд,uiezdie,uezd,county,,,adminL2,,,,3,
Переславль Залесский,322,Переславль-Залесский уѣздѣ,Переславль-Залесский уезд,Pereslavl'-Zalesskii uiezdie,Pereslavl'-Zalesskii uezd,,,,,1785,1796,POINT,38.85626,56.73934,"Pereslavl-Zalessky, Yaroslavl Oblast",Russia,RU,уѣздѣ,уезд,uiezdie,uezd,county,,,adminL2,,,,3,
Юрьевъ-Польскій,213,Юрьева-Польский уѣздѣ,Юрьева-Польский уезд,Iur'eva-Pol'skii uiezdie,Iur'eva-Pol'skii uezd,,,,,1785,1796,POINT,39.67911,56.50339,"Yuryev-Polsky, Vladimir Oblast",Russia,RU,уѣздѣ,уезд,uiezdie,uezd,county,,,adminL2,,,,3,
Шуя,222,Шуйский уѣздѣ,Шуйский уезд,Shuiskii uiezdie,Shuiskii uezd,,,,,1785,1796,POINT,41.38833,56.84865,"Shuya, Ivanovo Oblast",Russia,RU,уѣздѣ,уезд,uiezdie,uezd,county,,,adminL2,,,,3,
Гороховецъ,98,Гороховецкий уѣздѣ,Гороховецкий уезд,Gorokhovetskii uiezdie,Gorokhovetskii uezd,,,,,1785,1796,POINT,42.69351,56.20152,"Gorokhovets, Vladimir Oblast",Russia,RU,уѣздѣ,уезд,uiezdie,uezd,county,,,adminL2,,,,3,
Александровъ,,,,,,,,,,,,,,,,,,,,,,,,,,,,,3,
Муромъ,233,Муромский уѣздѣ,Муромский уезд,Muromskii uiezdie,Muromskii uezd,,,,,1785,1796,POINT,42.0426,55.575,"Murom, Vladimir Oblast",Russia,RU,уѣздѣ,уезд,uiezdie,uezd,county,,,adminL2,,,,3,
Киржачь,,,,,,,,,,,,,,,,,,,,,,,,,,,,,3,
Покровъ,,,,,,,,,,,,,,,,,,,,,,,,,,,,,3,
Судогда,,,,,,,,,,,,,,,,,,,,,,,,,,,,,3,
Ковровъ,182,Ковровский уѣздѣ,Ковровский уезд,Kovrovskii uiezdie,Kovrovskii uezd,,,,,1785,1796,POINT,41.31917,56.35722,"Kovrov, Vladimir Oblast",Russia,RU,уѣздѣ,уезд,uiezdie,uezd,county,,,adminL2,,,,3,
Вязники,170,Вязниковский уѣздѣ,Вязниковский уезд,Viaznikovskii uiezdie,Viaznikovskii uezd,,,,,1785,1796,POINT,42.15563,56.24057,"Vyazniki, Vladimir Oblast",Russia,RU,уѣздѣ,уезд,uiezdie,uezd,county,,,adminL2,,,,3,
Меленки,,,,,,,,,,,,,,,,,,,,,,,,,,,,,3,
Вологда,4,Вологодское Намѣстничество,Вологодское Наместничество,Vologodskoe Namiestnichestvo,Vologodskoe Namestnichestvo,,,,,1785,1796,POINT,39.88398,59.2239,"Vologda, Vologda Oblast",Russia,RU,Намѣстничество,Наместничество,Namiestnichestvo,Namestnichestvo,Viceroyalty,,,adminL1,,,,756,
Вологда,45,Вологодский уѣздѣ,Вологодский уезд,Vologodskii uiezdie,Vologodskii uezd,,,,,1785,1796,POINT,39.88398,59.2239,"Vologda, Vologda Oblast",Russia,RU,уѣздѣ,уезд,uiezdie,uezd,county,,,adminL2,,,,4,
Велскъ,,,,,,,,,,,,,,,,,,,,,,,,,,,,,4,
Тотьма,,,,,,,,,,,,,,,,,,,,,,,,,,,,,4,
Грязовецъ,174,Грязовецкий уѣздѣ,Грязовецкий уезд,Griazovetskii uiezdie,Griazovetskii uezd,,,,,1785,1796,POINT,40.2525,58.88,"Gryazovets, Vologda Oblast",Russia,RU,уѣздѣ,уезд,uiezdie,uezd,county,,,adminL2,,,,4,
Кадниковъ,,,,,,,,,,,,,,,,,,,,,,,,,,,,,4,
Устюгъ Великій,262,Великоустюгский уѣздѣ,Великоустюгский уезд,Velikoustiugskii uiezdie,Velikoustiugskii uezd,,,,,1785,1796,POINT,46.31352,60.76186,"Veliky Ustyug, Vologda Oblast",Russia,RU,уѣздѣ,уезд,uiezdie,uezd,county,,,adminL2,,,,4,
Сольвычегодскъ,253,Сольвычегодский уѣздѣ,Сольвычегодский уезд,Sol'vychegodskii uiezdie,Sol'vychegodskii uezd,,,,,1785,1796,POINT,46.91559,61.33046,"Solvychegodsk, Arkhangelsk Oblast",Russia,RU,уѣздѣ,уезд,uiezdie,uezd,county,,,adminL2,,,,4,
Лальскъ,192,Лальский уѣздѣ,Лальский уезд,Lal'skii uiezdie,Lal'skii uezd,,,,,1785,1796,POINT,47.58617,60.74146,"Luzsky District, Kirov Oblast",Russia,RU,уѣздѣ,уезд,uiezdie,uezd,county,,,adminL2,,,,4,
Никольскъ,,,,,,,,,,,,,,,,,,,,,,,,,,,,,4,
Красноборскъ,187,Красноборский уѣздѣ,Красноборский уезд,Krasnoborskii uiezdie,Krasnoborskii uezd,,,,,1785,1796,POINT,45.93396,61.55978,"Krasnoborsk, Arkhangelsk Oblast",Russia,RU,уѣздѣ,уезд,uiezdie,uezd,county,,,adminL2,,,,4,
Устьсысольскъ,261,Усть-Сысольский уѣздѣ,Усть-Сысольский уезд,Ust'-Sysol'skii uiezdie,Ust'-Sysol'skii uezd,,,,,1785,1796,POINT,50.80994,61.67642,"Syktyvkar, Komi Republic",Russia,RU,уѣздѣ,уезд,uiezdie,uezd,county,,,adminL2,,,,4,
Яренскъ,158,Яренский уѣздѣ,Яренский уезд,Iarenskii uiezdie,Iarenskii uezd,,,,,1785,1796,POINT,49.09162,62.16755,"Lenskiy rayon, Arkhangelsk Oblast",Russia,RU,уѣздѣ,уезд,uiezdie,uezd,county,,,adminL2,,,,4,
Воронежъ,5,Воронежское Намѣстничество,Воронежское Наместничество,Voronezhskoe Namiestnichestvo,Voronezhskoe Namestnichestvo,,,,,1785,1796,POINT,39.210556,51.671667,"Voronezh, Voronezh Oblast",Russia,RU,Намѣстничество,Наместничество,Namiestnichestvo,Namestnichestvo,Viceroyalty,,,adminL1,,,,756,
Воронежъ,46,Воронежский уѣздѣ,Воронежский уезд,Voronezhskii uiezdie,Voronezhskii uezd,,,,,1785,1796,POINT,39.210556,51.671667,"Voronezh, Voronezh Oblast",Russia,RU,уѣздѣ,уезд,uiezdie,uezd,county,,,adminL2,,,,5,
Задонскъ,,,,,,,,,,,,,,,,,,,,,,,,,,,,,5,
Бобровъ,,,,,,,,,,,,,,,,,,,,,,,,,,,,,5,
Земляанскъ,180,Землянский уѣздѣ,Землянский уезд,Zemlianskii uiezdie,Zemlianskii uezd,,,,,1785,1796,POINT,38.7334,51.9041,"Zemlyansk, Voronezh Oblast",Russia,RU,уѣздѣ,уезд,uiezdie,uezd,county,,,adminL2,,,,5,
Нижнедѣвицкъ,,,,,,,,,,,,,,,,,,,,,,,,,,,,,5,
Вирючъ,,,,,,,,,,,,,,,,,,,,,,,,,,,,,5,
Ливенскъ,,,,,,,,,,,,,,,,,,,,,,,,,,,,,5,
Калитва,,,,,,,,,,,,,,,,,,,,,,,,,,,,,5,
Волуйки,91,Валуйский уѣздѣ,Валуйский уезд,Valuiskii uiezdie,Valuiskii uezd,,,,,1785,1796,POINT,38.1067,50.2035,"Valuyki, Belgorod Oblast",Russia,RU,уѣздѣ,уезд,uiezdie,uezd,county,,,adminL2,,,,5,
Бѣловодскъ,,,,,,,,,,,,,,,,,,,,,,,,,,,,,5,
Купенскъ,,,,,,,,,,,,,,,,,,,,,,,,,,,,,5,
Богучаръ,,,,,,,,,,,,,,,,,,,,,,,,,,,,,5,
Павловскъ,,,,,,,,,,,,,,,,,,,,,,,,,,,,,5,
Острогожскъ,240,Острогожский уѣздѣ,Острогожский уезд,Ostrogozhskii uiezdie,Ostrogozhskii uezd,,,,,1785,1796,POINT,39.07561,50.8664,"Ostrogozhsk, Voronezh Oblast",Russia,RU,уѣздѣ,уезд,uiezdie,uezd,county,,,adminL2,,,,5,
Коротоякъ,204,Коротоякский уѣздѣ,Коротоякский уезд,Korotoiakskii uiezdie,Korotoiakskii uezd,,,,,1785,1796,POINT,39.17677,50.98665,"Korotoyak, Voronezh Oblast",Russia,RU,уѣздѣ,уезд,uiezdie,uezd,county,,,adminL2,,,,5,
Выборгъ,6,Выборгское Намѣстничество,Выборгское Наместничество,Vyborgskoe Namiestnichestvo,Vyborgskoe Namestnichestvo,,,,,1785,1796,POINT,28.744167,60.709167,"Vyborg, Leningrad Oblast",Russia,RU,Намѣстничество,Наместничество,Namiestnichestvo,Namestnichestvo,Viceroyalty,,,adminL1,,,,756,
Выборгъ,47,Выборгский уѣздѣ,Выборгский уезд,Vyborgskii uiezdie,Vyborgskii uezd,,,,,1785,1796,POINT,28.744167,60.709167,"Vyborg, Leningrad Oblast",Russia,RU,уѣздѣ,уезд,uiezdie,uezd,county,,,adminL2,,,,6,
Фридрихсгамъ,330,Фридрихсгамский уѣздѣ,Фридрихсгамский уезд,Fridrikhsgamskii uiezdie,Fridrikhsgamskii uezd,,,,,1785,1796,POINT,27.19794,60.56974,Hamina,Finland,FI,уѣздѣ,уезд,uiezdie,uezd,county,,,adminL2,,,,6,
Кексгольмъ,,,,,,,,,,,,,,,,,,,,,,,,,,,,,6,
Вильманстрандъ,280,Вильманстрандский уѣздѣ,Вильманстрандский уезд,Vil'manstrandskii uiezdie,Vil'manstrandskii uezd,,,,,1785,1796,POINT,28.231957,61.048829,Lappeenranta,Finland,FI,уѣздѣ,уезд,uiezdie,uezd,county,,,adminL2,,,,6,
Нейшлотъ,321,Нейшлотский уѣздѣ,Нейшлотский уезд,Neishlotskii uiezdie,Neishlotskii uezd,,,,,1785,1796,POINT,28.87999,61.8699,Savonlinna,Finland,FI,уѣздѣ,уезд,uiezdie,uezd,county,,,adminL2,,,,6,
Сердоболь,249,Сердовольский уѣздѣ,Сердовольский уезд,Serdovol'skii uiezdie,Serdovol'skii uezd,,,,,1785,1796,POINT,30.67434,61.69459,"Sortavala, Republic of Karelia",Russia,RU,уѣздѣ,уезд,uiezdie,uezd,county,,,adminL2,,,,6,
Вятка,7,Вятское Намѣстничество,Вятское Наместничество,Viatskoe Namiestnichestvo,Viatskoe Namestnichestvo,,,,,1785,1796,POINT,49.65,58.6,"Kirov, Kirov Oblast",Russia,RU,Намѣстничество,Наместничество,Namiestnichestvo,Namestnichestvo,Viceroyalty,,,adminL1,,,,756,
Вятка,48,Виатский уѣздѣ,Виатский уезд,Viatskii uiezdie,Viatskii uezd,,,,,1785,1796,POINT,49.65,58.6,"Kirov, Kirov Oblast",Russia,RU,уѣздѣ,уезд,uiezdie,uezd,county,,,adminL2,,,,7,
Кай городъ,,,,,,,,,,,,,,,,,,,,,,,,,,,,,7,
Котелничь,185,Котельничский уѣздѣ,Котельничский уезд,Kotel'nichskii uiezdie,Kotel'nichskii uezd,,,,,1785,1796,POINT,48.348,58.3089,"Kotelnich, Kirov Oblast",Russia,RU,уѣздѣ,уезд,uiezdie,uezd,county,,,adminL2,,,,7,
Слободскій,303,Слободский уѣздѣ,Слободский уезд,Slobodskii uiezdie,Slobodskii uezd,,,,,1785,1796,POINT,50.17722,58.73222,"Slobodskoy, Kirov Oblast",Russia,RU,уѣздѣ,уезд,uiezdie,uezd,county,,,adminL2,,,,7,
Уржумъ,,,,,,,,,,,,,,,,,,,,,,,,,,,,,7,
Орловъ на Вяткѣ,,,,,,,,,,,,,,,,,,,,,,,,,,,,,7,
Яранскъ,304,Яранский уѣздѣ,Яранский уезд,Iaranskii uiezdie,Iaranskii uezd,,,,,1785,1796,POINT,47.88611,57.30331,"Yaransk, Kirov Oblast",Russia,RU,уѣздѣ,уезд,uiezdie,uezd,county,,,adminL2,,,,7,
Царевосанчурскъ,218,Царевосанчурский уѣздѣ,Царевосанчурский уезд,Tsarevosanchurskii uiezdie,Tsarevosanchurskii uezd,,,,,1785,1796,POINT,47.24987,56.94125,"Sanchursk, Kirov Oblast",Russia,RU,уѣздѣ,уезд,uiezdie,uezd,county,,,adminL2,,,,7,
Глазовъ,,,,,,,,,,,,,,,,,,,,,,,,,,,,,7,
Елабуга,,,,,,,,,,,,,,,,,,,,,,,,,,,,,7,
Малмышъ,,,,,,,,,,,,,,,,,,,,,,,,,,,,,7,
Сарапуль,,,,,,,,,,,,,,,,,,,,,,,,,,,,,7,
Нолинскъ,,,,,,,,,,,,,,,,,,,,,,,,,,,,,7,
Екатеринославъ,8,Екатеринославское Намѣстничество,Екатеринославское Наместничество,Ekaterinoslavskoe Namiestnichestvo,Ekaterinoslavskoe Namestnichestvo,,,,,1785,1796,POINT,35.018155,48.466601,"Dnepropetrovsk, Dnipropetrovsk Oblast",Ukraine,UA,Намѣстничество,Наместничество,Namiestnichestvo,Namestnichestvo,Viceroyalty,,,adminL1,,,,756,
Екатеринославъ,49,Екатеринославский уѣздѣ,Екатеринославский уезд,Ekaterinoslavskii uiezdie,Ekaterinoslavskii uezd,,,,,1785,1796,POINT,35.018155,48.466601,"Dnepropetrovsk, Dnipropetrovsk Oblast",Ukraine,UA,уѣздѣ,уезд,uiezdie,uezd,county,,,adminL2,,,,8,
Градижскъ,,,,,,,,,,,,,,,,,,,,,,,,,,,,,8,
Полтава,138,Полотавский уѣздѣ,Полотавский уезд,Polotavskii uiezdie,Polotavskii uezd,,,,,1785,1796,POINT,34.54073,49.59373,"Poltava, Poltavs'ka oblast",Ukraine,UA,уѣздѣ,уезд,uiezdie,uezd,county,,,adminL2,,,,8,
Славяанскъ,,,,,,,,,,,,,,,,,,,,,,,,,,,,,8,
Маріуполь,,,,,,,,,,,,,,,,,,,,,,,,,,,,,8,
Херсонъ,266,Херсонский уѣздѣ,Херсонский уезд,Khersonskii uiezdie,Khersonskii uezd,,,,,1785,1796,POINT,32.6178,46.65581,"Kherson, Khersons'ka oblast",Ukraine,UA,уѣздѣ,уезд,uiezdie,uezd,county,,,adminL2,,,,8,
Бахмутъ,,,,,,,,,,,,,,,,,,,,,,,,,,,,,8,
Павлоградъ,277,Павлоградский уѣздѣ,Павлоградский уезд,Pavlogradskii uiezdie,Pavlogradskii uezd,,,,,1785,1796,POINT,35.87098,48.53426,"Pavlohrad, Dnipropetrovsk Oblast",Ukraine,UA,уѣздѣ,уезд,uiezdie,uezd,county,,,adminL2,,,,8,
Новомиргородъ,,,,,,,,,,,,,,,,,,,,,,,,,,,,,8,
Елисабетградъ,314,Елисаветградский уѣздѣ,Елисаветградский уезд,Elisavetgradskii uiezdie,Elisavetgradskii uezd,,,,,1785,1796,POINT,32.2597,48.5132,"Kirovohrad, Kirovohrads'ka oblast",Ukraine,UA,уѣздѣ,уезд,uiezdie,uezd,county,,,adminL2,,,,8,
Новомосковскъ,,,,,,,,,,,,,,,,,,,,,,,,,,,,,8,
Константиноградъ,,,,,,,,,,,,,,,,,,,,,,,,,,,,,8,
Алексополь,,,,,,,,,,,,,,,,,,,,,,,,,,,,,8,
Донецкъ,,,,,,,,,,,,,,,,,,,,,,,,,,,,,8,
Александрія,,,,,,,,,,,,,,,,,,,,,,,,,,,,,8,
Иркутскъ,9,Иркутское Намѣстничество,Иркутское Наместничество,Irkutskoe Namiestnichestvo,Irkutskoe Namestnichestvo,,,,,1785,1796,POINT,104.29639,52.29778,"Irkutsk, Irkutsk Oblast",Russia,RU,Намѣстничество,Наместничество,Namiestnichestvo,Namestnichestvo,Viceroyalty,,,adminL1,,,,756,
Иркутскъ,50,Иркутский уѣздѣ,Иркутский уезд,Irkutskii uiezdie,Irkutskii uezd,,,,,1785,1796,POINT,104.29639,52.29778,"Irkutsk, Irkutsk Oblast",Russia,RU,уѣздѣ,уезд,uiezdie,uezd,county,,,adminL2,,,,9,
Верхній Удинскъ,95,Верхнеудинский уѣздѣ,Верхнеудинский уезд,Verkhneudinskii uiezdie,Verkhneudinskii uezd,,,,,1785,1796,POINT,107.6,51.833333,"Ulan-Ude, Buryatia",Russia,RU,уѣздѣ,уезд,uiezdie,uezd,county,,,adminL2,,,,9,
Нижній Удинскъ,,,,,,,,,,,,,,,,,,,,,,,,,,,,,9,
Киренскъ,113,Киренский уѣздѣ,Киренский уезд,Kirenskii uiezdie,Kirenskii uezd,,,,,1785,1796,POINT,108.11194,57.78528,"Kirensky District, Irkutsk Oblast",Russia,RU,уѣздѣ,уезд,uiezdie,uezd,county,,,adminL2,,,,9,
Нерчинскъ,219,Нерчинский уѣздѣ,Нерчинский уезд,Nerchinskii uiezdie,Nerchinskii uezd,,,,,1785,1796,POINT,116.58333,51.98333,"Nerchinsk, Zabaykalsky Krai",Russia,RU,уѣздѣ,уезд,uiezdie,uezd,county,,,adminL2,,,,9,
Доронинскъ,,,,,,,,,,,,,,,,,,,,,,,,,,,,,9,
Баргузинъ,,,,,,,,,,,,,,,,,,,,,,,,,,,,,9,
Стрѣтинскъ,,,,,,,,,,,,,,,,,,,,,,,,,,,,,9,
Якутскъ,,,,,,,,,,,,,,,,,,,,,,,,,,,,,9,
Олекминскъ,238,Олёкминский уѣздѣ,Олёкминский уезд,Olёkminskii uiezdie,Olёkminskii uezd,,,,,1785,1796,POINT,120.4203,60.3743,"Olekminskiy ulus, Sakha Republic",Russia,RU,уѣздѣ,уезд,uiezdie,uezd,county,,,adminL2,,,,9,
Оленскъ,,,,,,,,,,,,,,,,,,,,,,,,,,,,,9,
Жиганскъ,177,Жиганский уѣздѣ,Жиганский уезд,Zhiganskii uiezdie,Zhiganskii uezd,,,,,1785,1796,POINT,123.37418,66.76601,"Zhigansky District, Sakha Republic",Russia,RU,уѣздѣ,уезд,uiezdie,uezd,county,,,adminL2,,,,9,
Зашиверскъ,179,Зашиверский уѣздѣ,Зашиверский уезд,Zashiverskii uiezdie,Zashiverskii uezd,,,,,1785,1796,POINT,142.61667,67.45,Sakha Republic,Russia,RU,уѣздѣ,уезд,uiezdie,uezd,county,,,adminL2,,,,9,
Охотскъ,,,,,,,,,,,,,,,,,,,,,,,,,,,,,9,
Ижигинскъ,,,,,,,,,,,,,,,,,,,,,,,,,,,,,9,
Акланскъ,,,,,,,,,,,,,,,,,,,,,,,,,,,,,9,
Нижній Камчатскъ,,,,,,,,,,,,,,,,,,,,,,,,,,,,,9,
Екатериноградъ,10,Кавказское Намѣстничество,Кавказское Наместничество,Kavkazskoe Namiestnichestvo,Kavkazskoe Namestnichestvo,,,,,1785,1796,POINT,48.036667,46.323611,"Astrakhan, Astrakhan Oblast",Russia,RU,Намѣстничество,Наместничество,Namiestnichestvo,Namestnichestvo,Viceroyalty,,,adminL1,,,,756,
Кизляръ,,,,,,,,,,,,,,,,,,,,,,,,,,,,,10,
Моздокъ,,,,,,,,,,,,,,,,,,,,,,,,,,,,,10,
Георгіевскъ,,,,,,,,,,,,,,,,,,,,,,,,,,,,,10,
Александровскъ,,,,,,,,,,,,,,,,,,,,,,,,,,,,,10,
Ставрополь,,,,,,,,,,,,,,,,,,,,,,,,,,,,,10,
Астраханъ,51,Астраханский уѣздѣ,Астраханский уезд,Astrakhanskii uiezdie,Astrakhanskii uezd,,,,,1785,1796,POINT,48.036667,46.323611,"Astrakhan, Astrakhan Oblast",Russia,RU,уѣздѣ,уезд,uiezdie,uezd,county,,,adminL2,,,,10,
Енотаевскъ,,,,,,,,,,,,,,,,,,,,,,,,,,,,,10,
Черноярскъ,,,,,,,,,,,,,,,,,,,,,,,,,,,,,10,
Красноярскъ,,,,,,,,,,,,,,,,,,,,,,,,,,,,,10,
Казань,11,Казанское Намѣстничество,Казанское Наместничество,Kazanskoe Namiestnichestvo,Kazanskoe Namestnichestvo,,,,,1785,1796,POINT,49.114444,55.790833,"Kazan, Tatarstan",Russia,RU,Намѣстничество,Наместничество,Namiestnichestvo,Namestnichestvo,Viceroyalty,,,adminL1,,,,756,
Казань,52,Казанский уѣздѣ,Казанский уезд,Kazanskii uiezdie,Kazanskii uezd,,,,,1785,1796,POINT,49.114444,55.790833,"Kazan, Tatarstan",Russia,RU,уѣздѣ,уезд,uiezdie,uezd,county,,,adminL2,,,,11,
Лаишевъ,191,Лаишевский уѣздѣ,Лаишевский уезд,Laishevskii uiezdie,Laishevskii uezd,,,,,1785,1796,POINT,49.55037,55.40464,"Laishevo, Tatarstan",Russia,RU,уѣздѣ,уезд,uiezdie,uezd,county,,,adminL2,,,,11,
Спаскъ,,,,,,,,,,,,,,,,,,,,,,,,,,,,,11,
Чистополье,,,,,,,,,,,,,,,,,,,,,,,,,,,,,11,
Мамадышъ,,,,,,,,,,,,,,,,,,,,,,,,,,,,,11,
Арскъ,,,,,,,,,,,,,,,,,,,,,,,,,,,,,11,
Царевококшайскъ,212,Царевококшайский уѣздѣ,Царевококшайский уезд,Tsarevokokshaiskii uiezdie,Tsarevokokshaiskii uezd,,,,,1785,1796,POINT,47.89078,56.63877,"Yoshkar-Ola, Mari El",Russia,RU,уѣздѣ,уезд,uiezdie,uezd,county,,,adminL2,,,,11,
Козьмодемьяанскъ,207,Козьмодемьянский уѣздѣ,Козьмодемьянский уезд,Koz'modem'ianskii uiezdie,Koz'modem'ianskii uezd,,,,,1785,1796,POINT,46.56353,56.3419,"Kozmodemyansk, Mari El",Russia,RU,уѣздѣ,уезд,uiezdie,uezd,county,,,adminL2,,,,11,
Чебоксары,,,,,,,,,,,,,,,,,,,,,,,,,,,,,11,
Ядринъ,269,Ядринский уѣздѣ,Ядринский уезд,Iadrinskii uiezdie,Iadrinskii uezd,,,,,1785,1796,POINT,46.20622,55.94052,"Yadrin, Chuvashia Republic",Russia,RU,уѣздѣ,уезд,uiezdie,uezd,county,,,adminL2,,,,11,
Цывильскъ,275,Цывильский уѣздѣ,Цывильский уезд,Tsyvil'skii uiezdie,Tsyvil'skii uezd,,,,,1785,1796,POINT,47.668387,55.737351,"Tsivilskiy rayon, Chuvashia Republic",Russia,RU,уѣздѣ,уезд,uiezdie,uezd,county,,,adminL2,,,,11,
Тетюши,,,,,,,,,,,,,,,,,,,,,,,,,,,,,11,
Свіажскъ,145,Свиажский уѣздѣ,Свиажский уезд,Sviazhskii uiezdie,Sviazhskii uezd,,,,,1785,1796,POINT,48.66051,55.77329,"Sviyazhsk, Tatarstan",Russia,RU,уѣздѣ,уезд,uiezdie,uezd,county,,,adminL2,,,,11,
Калуга,12,Калужское Намѣстничество,Калужское Наместничество,Kaluzhskoe Namiestnichestvo,Kaluzhskoe Namestnichestvo,,,,,1785,1796,POINT,36.266667,54.533333,"Kaluga, Kaluga Oblast",Russia,RU,Намѣстничество,Наместничество,Namiestnichestvo,Namestnichestvo,Viceroyalty,,,adminL1,,,,756,
Калуга,53,Калужский уѣздѣ,Калужский уезд,Kaluzhskii uiezdie,Kaluzhskii uezd,,,,,1785,1796,POINT,36.266667,54.533333,"Kaluga, Kaluga Oblast",Russia,RU,уѣздѣ,уезд,uiezdie,uezd,county,,,adminL2,,,,12,
Козельскъ,115,Козельский уѣздѣ,Козельский уезд,Kozel'skii uiezdie,Kozel'skii uezd,,,,,1785,1796,POINT,35.77159,54.03746,"Kozelsk, Kaluga Oblast",Russia,RU,уѣздѣ,уезд,uiezdie,uezd,county,,,adminL2,,,,12,
Перемышль,241,Перемышльский уѣздѣ,Перемышльский уезд,Peremyshl'skii uiezdie,Peremyshl'skii uezd,,,,,1785,1796,POINT,36.16063,54.26313,"Peremyshl, Kaluga Oblast",Russia,RU,уѣздѣ,уезд,uiezdie,uezd,county,,,adminL2,,,,12,
Малой Ярославецъ,318,Малоярославецкий уѣздѣ,Малоярославецкий уезд,Maloiaroslavetskii uiezdie,Maloiaroslavetskii uezd,,,,,1785,1796,POINT,36.47185,55.01457,"Maloyaroslavets, Kaluga Oblast",Russia,RU,уѣздѣ,уезд,uiezdie,uezd,county,,,adminL2,,,,12,
Лихвинъ,194,Лихвинский уѣздѣ,Лихвинский уезд,Likhvinskii uiezdie,Likhvinskii uezd,,,,,1785,1796,POINT,36.24499,54.09685,"Chekalin, Tula Oblast",Russia,RU,уѣздѣ,уезд,uiezdie,uezd,county,,,adminL2,,,,12,
Мещовскъ,229,Мешчовский уѣздѣ,Мешчовский уезд,Meshchovskii uiezdie,Meshchovskii uezd,,,,,1785,1796,POINT,35.28083,54.32444,"Meshchovsk, Kaluga Oblast",Russia,RU,уѣздѣ,уезд,uiezdie,uezd,county,,,adminL2,,,,12,
Серпейскъ,251,Серпейский уѣздѣ,Серпейский уезд,Serpeiskii uiezdie,Serpeiskii uezd,,,,,1785,1796,POINT,34.98889,54.33583,"Serpeysk, Kaluga Oblast",Russia,RU,уѣздѣ,уезд,uiezdie,uezd,county,,,adminL2,,,,12,
Мосальскъ,232,Мосальский уѣздѣ,Мосальский уезд,Mosal'skii uiezdie,Mosal'skii uezd,,,,,1785,1796,POINT,34.98167,54.48806,"Mosalsk, Kaluga Oblast",Russia,RU,уѣздѣ,уезд,uiezdie,uezd,county,,,adminL2,,,,12,
Таруса,257,Тарусский уѣздѣ,Тарусский уезд,Tarusskii uiezdie,Tarusskii uezd,,,,,1785,1796,POINT,37.17272,54.72436,"Tarusa, Kaluga Oblast",Russia,RU,уѣздѣ,уезд,uiezdie,uezd,county,,,adminL2,,,,12,
Медынь,228,Медынский уѣздѣ,Медынский уезд,Medynskii uiezdie,Medynskii uezd,,,,,1785,1796,POINT,35.85861,54.96917,"Medyn, Kaluga Oblast",Russia,RU,уѣздѣ,уезд,uiezdie,uezd,county,,,adminL2,,,,12,
Боровскъ,210,Боровский уѣздѣ,Боровский уезд,Borovskii uiezdie,Borovskii uezd,,,,,1785,1796,POINT,36.48611,55.20639,"Borovsk, Kaluga Oblast",Russia,RU,уѣздѣ,уезд,uiezdie,uezd,county,,,adminL2,,,,12,
Жиздра,178,Жиздринский уѣздѣ,Жиздринский уезд,Zhizdrinskii uiezdie,Zhizdrinskii uezd,,,,,1785,1796,POINT,34.73951,53.74596,"Zhizdra, Kaluga Oblast",Russia,RU,уѣздѣ,уезд,uiezdie,uezd,county,,,adminL2,,,,12,
Кіев,13,Кіевское Намѣстничество,Киевское Наместничество,Kіevskoe Namiestnichestvo,Kievskoe Namestnichestvo,,,,,1785,1796,POINT,30.523333,50.45,"Kiev, Kyiv city",Ukraine,UA,Намѣстничество,Наместничество,Namiestnichestvo,Namestnichestvo,Viceroyalty,,,adminL1,,,,756,
Кіев,54,Кіевский уѣздѣ,Киевский уезд,Kievskii uiezdie,Kievskii uezd,,,,,1785,1796,POINT,30.523333,50.45,"Kiev, Kyiv city",Ukraine,UA,уѣздѣ,уезд,uiezdie,uezd,county,,,adminL2,,,,13,
Остеръ,,,,,,,,,,,,,,,,,,,,,,,,,,,,,,
Козелецъ,183,Козелецкий уѣздѣ,Козелецкий уезд,Kozeletskii uiezdie,Kozeletskii uezd,,,,,1785,1796,POINT,31.1214,50.91334,"Kozelets', Chernihivs'ka oblast",Ukraine,UA,уѣздѣ,уезд,uiezdie,uezd,county,,,adminL2,,,,13,
Переясалвль,135,Переяславский уѣздѣ,Переяславский уезд,Pereiaslavskii uiezdie,Pereiaslavskii uezd,,,,,1785,1796,POINT,31.4795,50.08768,"Pereyaslav-Khmel'nyts'kyi, Kyivs'ka oblast",Ukraine,UA,уѣздѣ,уезд,uiezdie,uezd,county,,,adminL2,,,,13,
Пирятинъ,,,,,,,,,,,,,,,,,,,,,,,,,,,,,,
Лубны,122,Любенский уѣздѣ,Любенский уезд,Lubenskii uiezdie,Lubenskii uezd,,,,,1785,1796,POINT,32.99694,50.01625,"Lubny, Poltavs'ka oblast",Ukraine,UA,уѣздѣ,уезд,uiezdie,uezd,county,,,adminL2,,,,13,
Миргородъ,125,Миргородский уѣздѣ,Миргородский уезд,Mirgorodskii uiezdie,Mirgorodskii uezd,,,,,1785,1796,POINT,33.60886,49.96854,"Myrhorod, Poltavs'ka oblast",Ukraine,UA,уѣздѣ,уезд,uiezdie,uezd,county,,,adminL2,,,,13,
Хоролъ,,,,,,,,,,,,,,,,,,,,,,,,,,,,,,
Золотоноша,181,Золотоношский уѣздѣ,Золотоношский уезд,Zolotonoshskii uiezdie,Zolotonoshskii uezd,,,,,1785,1796,POINT,32.04047,49.66832,"Zolotonosha, Cherkas'ka oblast",Ukraine,UA,уѣздѣ,уезд,uiezdie,uezd,county,,,adminL2,,,,13,
Колывань,,,,,,,,,,,,,,,,,,,,,,,,,,,,,,
Колывань,,,,,,,,,,,,,,,,,,,,,,,,,,,,,,
Семипалатой,,,,,,,,,,,,,,,,,,,,,,,,,,,,,,
Бийскъ,,,,,,,,,,,,,,,,,,,,,,,,,,,,,,
Красноярскъ,,,,,,,,,,,,,,,,,,,,,,,,,,,,,,
Кузнецкъ,,,,,,,,,,,,,,,,,,,,,,,,,,,,,,
